locality string,country,Prefecture,county,latitude,longitude,correction status,precision,error polygon,multiple results,uncertainty radius,Island,TNS No.,Type status,Genus,Species epithet,Collector,Collection Date (Year),Collecting Date (Month),Collecting Date (Day),Country,Prefecture,Island,City/Town,Ward Name,Identifier
,,,,,,,,,,,,,,,,,,,,,,,,,
Aikawa,Japan,Niigata,,38.033333,138.234379,yes,High(81),,"38.033333,138.25,AIKAWA|Unavailable|3036|High(81)",3037,Sado,166824,,Heterosiphonia,japonica,M. Suzuki,2003,3,6,Japan,Niigata,Sado,Aikawa,,M. Suzuki
Aikawa,Japan,Niigata,,38.033333,138.234379,yes,High(81),,"38.033333,138.25,AIKAWA|Unavailable|3036|High(81)",3038,Sado,182582,,Heterosiphonia,japonica,M. Suzuki,2003,3,6,Japan,Niigata,Sado,Aikawa,,M. Suzuki
,,,,,,,,,,,,,,,,,,,,,,,,,
Amatsu,Japan,Chiba,,35.119691,140.164205,yes,High(81),,"35.123131,140.164377,AMATSU|Unavailable|3036|High(81)",3037,,161376,,Heterosiphonia,japonica,M. Chihara,1951,3,25,Japan,Chiba,,Amatsu,,
,,,,,,,,,,,,,,,,,,,,,,,,,
Aomori,Japan,Aomori,,40.841235,140.755027,yes,High(81),,"40.783104,140.828275,AOMORI|Unavailable|301|High(81),40.83032,140.73465,AOMORI|Unavailable|301|High(81),40.77001,140.75423,AOMORI|Unavailable|301|High(81)",3053,,28810,,Heterosiphonia,japonica,M. Yoshizaki,1965,8,2,Japan,Aomori,,Aomori,,M. Yoshizaki
Aomori,Japan,Aomori,,40.841235,140.755027,yes,High(81),,"40.783104,140.828275,AOMORI|Unavailable|301|High(81),40.83032,140.73465,AOMORI|Unavailable|301|High(81),40.77001,140.75423,AOMORI|Unavailable|301|High(81)",3054,,28809,,Heterosiphonia,japonica,M. Yoshizaki,1965,8,2,Japan,Aomori,,Aomori,,M. Yoshizaki
Aomori,Japan,Aomori,,40.841235,140.755027,yes,High(81),,"40.783104,140.828275,AOMORI|Unavailable|301|High(81),40.83032,140.73465,AOMORI|Unavailable|301|High(81),40.77001,140.75423,AOMORI|Unavailable|301|High(81)",3055,,28665,,Heterosiphonia,japonica,M. Yoshizaki,1965,8,2,Japan,Aomori,,Aomori,,M. Yoshizaki
,,,,,,,,,,,,,,,,,,,,,,,,,
Chigasaki,Japan,Kanagawa,,35.312665,139.401142,yes,High(84),,"35.326111,139.403889,CHIGASAKI|Unavailable|3036|High(84),35.344288,139.40958,CHIGASAKI|Unavailable|301|High(84)",3037,,172989,,Heterosiphonia,japonica,S. Kato,1938,2,28,Japan,Kanagawa,,Chigasaki,,
,,,,,,,,,,,,,,,,,,,,,,,,,
Fukaura,Japan,Aomori,,40.650953,139.924813,yes,High(82),,"40.641315,139.932023,FUKAURA|Unavailable|3036|High(82)",3037,,168723,,Heterosiphonia,japonica,,1967,7,28,Japan,Aomori,,Fukaura,,M. Yoshizaki
,,,,,,,,,,,,,,,,,,,,,,,,,
,,,,,,,,,,,,,,,,,,,,,,,,,
Fukue,Japan,Nagasaki,,32.698819,128.862715,yes,High(80),,"32.688056,128.841944,FUKUE|Unavailable|3036|High(80)",3036,Fukue,153062,,Heterosiphonia,japonica,T. Kitayama,1998,3,13,Japan,Nagasaki,Fukue,Fukue,,T. Kitayama
Fukue,Japan,Nagasaki,,32.694413,128.85911,yes,High(80),,"32.688056,128.841944,FUKUE|Unavailable|3036|High(80)",3036,,49459,,Heterosiphonia,japonica,T. Kitayama,1998,3,13,Japan,Nagasaki,,Fukue,,T. Kitayama
Fukue,Japan,Nagasaki,,32.694413,128.85911,yes,High(80),,"32.688056,128.841944,FUKUE|Unavailable|3036|High(80)",3037,,49470,,Heterosiphonia,japonica,T. Kitayama,1998,3,13,Japan,Nagasaki,,Fukue,,T. Kitayama
Fukue,Japan,Nagasaki,,32.694413,128.85911,yes,High(80),,"32.688056,128.841944,FUKUE|Unavailable|3036|High(80)",3038,,49471,,Heterosiphonia,japonica,T. Kitayama,1998,3,13,Japan,Nagasaki,,Fukue,,T. Kitayama
Fukue,Japan,Nagasaki,,32.694413,128.85911,yes,High(80),,"32.688056,128.841944,FUKUE|Unavailable|3036|High(80)",3039,,49472,,Heterosiphonia,japonica,T. Kitayama,1998,3,13,Japan,Nagasaki,,Fukue,,T. Kitayama
Fukue,Japan,Nagasaki,,32.694413,128.85911,yes,High(80),,"32.688056,128.841944,FUKUE|Unavailable|3036|High(80)",3040,,49473,,Heterosiphonia,japonica,T. Kitayama,1998,3,13,Japan,Nagasaki,,Fukue,,T. Kitayama
,,,,,,,,,,,,,,,,,,,,,,,,,
,,,,,,,,,,,,,,,,,,,,,,,,,
Hachinohe,Japan,Aomori,,40.548019,141.527937,yes,High(84),,"40.473889,141.481245,HACHINOHE|Unavailable|301|High(84),40.516375,141.488995,HACHINOHE|Unavailable|301|High(84)",4622,,28660,,,,,0,,,,,,,,
Hachinohe,Japan,Aomori,,40.548019,141.527937,yes,High(84),,"40.473889,141.481245,HACHINOHE|Unavailable|301|High(84),40.516375,141.488995,HACHINOHE|Unavailable|301|High(84)",4623,,28660,,Heterosiphonia,japonica,M. Yoshizaki,1965,7,22,Japan,Aomori,,Hachinohe,,M. Yoshizaki
Hachinohe,Japan,Aomori,,40.548019,141.527937,yes,High(84),,"40.473889,141.481245,HACHINOHE|Unavailable|301|High(84),40.516375,141.488995,HACHINOHE|Unavailable|301|High(84)",4624,,28696,,Heterosiphonia,japonica,M. Yoshizaki,1965,7,22,Japan,Aomori,,Hachinohe,,M. Yoshizaki
Hachinohe,Japan,Aomori,,40.548019,141.527937,yes,High(84),,"40.473889,141.481245,HACHINOHE|Unavailable|301|High(84),40.516375,141.488995,HACHINOHE|Unavailable|301|High(84)",4625,,28692,,Heterosiphonia,japonica,M. Yoshizaki,1965,7,22,Japan,Aomori,,Hachinohe,,M. Yoshizaki
Hachinohe,Japan,Aomori,,40.548019,141.527937,yes,High(84),,"40.473889,141.481245,HACHINOHE|Unavailable|301|High(84),40.516375,141.488995,HACHINOHE|Unavailable|301|High(84)",4626,,28666,,Heterosiphonia,japonica,M. Yoshizaki,1965,7,22,Japan,Aomori,,Hachinohe,,M. Yoshizaki
Hachinohe,Japan,Aomori,,40.548019,141.527937,yes,High(84),,"40.473889,141.481245,HACHINOHE|Unavailable|301|High(84),40.516375,141.488995,HACHINOHE|Unavailable|301|High(84)",4627,,28659,,Heterosiphonia,japonica,M. Yoshizaki,1965,7,22,Japan,Aomori,,Hachinohe,,M. Yoshizaki
Hachinohe,Japan,Aomori,,40.548019,141.527937,yes,High(84),,"40.473889,141.481245,HACHINOHE|Unavailable|301|High(84),40.516375,141.488995,HACHINOHE|Unavailable|301|High(84)",4628,,28658,,Heterosiphonia,japonica,M. Yoshizaki,1965,7,22,Japan,Aomori,,Hachinohe,,M. Yoshizaki
Hachinohe,Japan,Aomori,,40.548019,141.527937,yes,High(84),,"40.473889,141.481245,HACHINOHE|Unavailable|301|High(84),40.516375,141.488995,HACHINOHE|Unavailable|301|High(84)",4629,,28657,,Heterosiphonia,japonica,M. Yoshizaki,1965,7,22,Japan,Aomori,,Hachinohe,,M. Yoshizaki
Hachinohe,Japan,Aomori,,40.548019,141.527937,yes,High(84),,"40.473889,141.481245,HACHINOHE|Unavailable|301|High(84),40.516375,141.488995,HACHINOHE|Unavailable|301|High(84)",4630,,28656,,Heterosiphonia,japonica,M. Yoshizaki,1965,7,22,Japan,Aomori,,Hachinohe,,M. Yoshizaki
Hachinohe,Japan,Aomori,,40.548019,141.527937,yes,High(84),,"40.473889,141.481245,HACHINOHE|Unavailable|301|High(84),40.516375,141.488995,HACHINOHE|Unavailable|301|High(84)",4631,,28655,,Heterosiphonia,japonica,M. Yoshizaki,1965,7,22,Japan,Aomori,,Hachinohe,,M. Yoshizaki
Hachinohe,Japan,Aomori,,40.548019,141.527937,yes,High(84),,"40.473889,141.481245,HACHINOHE|Unavailable|301|High(84),40.516375,141.488995,HACHINOHE|Unavailable|301|High(84)",4632,,28654,,Heterosiphonia,japonica,M. Yoshizaki,1965,7,22,Japan,Aomori,,Hachinohe,,M. Yoshizaki
Hachinohe,Japan,Aomori,,40.548019,141.527937,yes,High(84),,"40.473889,141.481245,HACHINOHE|Unavailable|301|High(84),40.516375,141.488995,HACHINOHE|Unavailable|301|High(84)",4633,,28653,,Heterosiphonia,japonica,M. Yoshizaki,1965,7,22,Japan,Aomori,,Hachinohe,,M. Yoshizaki
,,,,,,,,,,,,,,,,,,,,,,,,,
Hamashima,Japan,Mie,,34.294469,136.745193,yes,High(84),,"34.3,136.75,HAMASHIMA|Unavailable|3036|High(84)",3037,,28814,,Heterosiphonia,japonica,S. Hiraide,1971,3,13,Japan,Mie,,Hamashima,,M. Chihara
Hamashima,Japan,Mie,,34.294469,136.745193,yes,High(84),,"34.3,136.75,HAMASHIMA|Unavailable|3036|High(84)",3038,,28813,,Heterosiphonia,japonica,S. Hiraide,1971,3,13,Japan,Mie,,Hamashima,,M. Chihara
Hamashima,Japan,Mie,,34.294469,136.745193,yes,High(84),,"34.3,136.75,HAMASHIMA|Unavailable|3036|High(84)",3039,,28806,,Heterosiphonia,japonica,S. Hiraide,1971,3,13,Japan,Mie,,Hamashima,,M. Chihara
Hamashima,Japan,Mie,,34.294469,136.745193,yes,High(84),,"34.3,136.75,HAMASHIMA|Unavailable|3036|High(84)",3040,,28805,,Heterosiphonia,japonica,S. Hiraide,1971,3,13,Japan,Mie,,Hamashima,,M. Chihara
Hamashima,Japan,Mie,,34.294469,136.745193,yes,High(84),,"34.3,136.75,HAMASHIMA|Unavailable|3036|High(84)",3041,,28804,,Heterosiphonia,japonica,S. Hiraide,1971,3,13,Japan,Mie,,Hamashima,,M. Chihara
Hamashima,Japan,Mie,,34.294469,136.745193,yes,High(84),,"34.3,136.75,HAMASHIMA|Unavailable|3036|High(84)",3042,,28803,,Heterosiphonia,japonica,S. Hiraide,1971,3,13,Japan,Mie,,Hamashima,,M. Chihara
Hamashima,Japan,Mie,,34.294469,136.745193,yes,High(84),,"34.3,136.75,HAMASHIMA|Unavailable|3036|High(84)",3043,,28802,,Heterosiphonia,japonica,S. Hiraide,1971,3,13,Japan,Mie,,Hamashima,,M. Chihara
Hamashima,Japan,Mie,,34.294469,136.745193,yes,High(84),,"34.3,136.75,HAMASHIMA|Unavailable|3036|High(84)",3044,,28801,,Heterosiphonia,japonica,S. Hiraide,1971,3,13,Japan,Mie,,Hamashima,,M. Chihara
Hamashima,Japan,Mie,,34.294469,136.745193,yes,High(84),,"34.3,136.75,HAMASHIMA|Unavailable|3036|High(84)",3045,,28800,,Heterosiphonia,japonica,S. Hiraide,1971,3,13,Japan,Mie,,Hamashima,,M. Chihara
Hamashima,Japan,Mie,,34.294469,136.745193,yes,High(84),,"34.3,136.75,HAMASHIMA|Unavailable|3036|High(84)",3046,,28799,,Heterosiphonia,japonica,S. Hiraide,1971,3,13,Japan,Mie,,Hamashima,,M. Chihara
Hamashima,Japan,Mie,,34.294469,136.745193,yes,High(84),,"34.3,136.75,HAMASHIMA|Unavailable|3036|High(84)",3047,,28798,,Heterosiphonia,japonica,S. Hiraide,1971,3,13,Japan,Mie,,Hamashima,,M. Chihara
Hamashima,Japan,Mie,,34.294469,136.745193,yes,High(84),,"34.3,136.75,HAMASHIMA|Unavailable|3036|High(84)",3048,,28797,,Heterosiphonia,japonica,S. Hiraide,1971,3,13,Japan,Mie,,Hamashima,,M. Chihara
Hamashima,Japan,Mie,,34.294469,136.745193,yes,High(84),,"34.3,136.75,HAMASHIMA|Unavailable|3036|High(84)",3049,,28796,,Heterosiphonia,japonica,S. Hiraide,1971,3,13,Japan,Mie,,Hamashima,,M. Chihara
Hamashima,Japan,Mie,,34.294469,136.745193,yes,High(84),,"34.3,136.75,HAMASHIMA|Unavailable|3036|High(84)",3050,,28795,,Heterosiphonia,japonica,S. Hiraide,1971,3,13,Japan,Mie,,Hamashima,,M. Chihara
Hamashima,Japan,Mie,,34.294469,136.745193,yes,High(84),,"34.3,136.75,HAMASHIMA|Unavailable|3036|High(84)",3051,,28794,,Heterosiphonia,japonica,S. Hiraide,1971,3,13,Japan,Mie,,Hamashima,,M. Chihara
Hamashima,Japan,Mie,,34.294469,136.745193,yes,High(84),,"34.3,136.75,HAMASHIMA|Unavailable|3036|High(84)",3052,,28793,,Heterosiphonia,japonica,M. Chihara,1971,3,13,Japan,Mie,,Hamashima,,M. Chihara
Hamashima,Japan,Mie,,34.294469,136.745193,yes,High(84),,"34.3,136.75,HAMASHIMA|Unavailable|3036|High(84)",3053,,28792,,Heterosiphonia,japonica,S. Hiraide,1971,3,13,Japan,Mie,,Hamashima,,M. Chihara
hando-jima,Japan,Yamaguchi,,33.779212,132.171567,yes,High(85),,"33.779167,132.175,HANDO-JIMA|Unavailable|301|High(85),40.409923,141.400202,HANDO|Unavailable|3036|Low(35),26.416667,127.733333,JIMA|Unavailable|3036|Low(34)",301,Hando-jima,48617,,,,,0,,,,,,,,
,,,,,,,,,,,,,,,,,,,,,,,,,
Hayama,Japan,Kanagawa,,35.263163,139.57063,yes,High(81),,"35.266667,139.583333,HAYAMA|Unavailable|3036|High(81)",3037,,169776,,Heterosiphonia,japonica,T. Kitayama,2002,2,16,Japan,Kanagawa,,Hayama,,T. Kitayama
,,,,,,,,,,,,,,,,,,,,,,,,,
Hidaka,Japan,Wakayama,,33.913824,135.072838,yes,High(81),,"33.883333,135.15,HIDAKA|Unavailable|3036|High(81)",3037,,28674,,Heterosiphonia,japonica,T. Yamamoto,1963,4,1,Japan,Wakayama,,Hidaka,,
Hidaka,Japan,Wakayama,,33.913824,135.072838,yes,High(81),,"33.883333,135.15,HIDAKA|Unavailable|3036|High(81)",3038,,28675,,Heterosiphonia,japonica,T. Yamamoto,1963,4,1,Japan,Wakayama,,Hidaka,,
,,,,,,,,,,,,,,,,,,,,,,,,,
Higashidori,Japan,Aomori,,41.34536,141.452213,yes,High(86),,"41.278311,141.351963,HIGASHIDORI|Unavailable|301|High(86)",13930,,166548,,Heterosiphonia,japonica,M. Hirai,1966,1,9,Japan,Aomori,,Higashidori,,
Higashidori,Japan,Aomori,,41.34536,141.452213,yes,High(86),,"41.278311,141.351963,HIGASHIDORI|Unavailable|301|High(86)",13931,,28828,,Heterosiphonia,japonica,M. Chihara,1968,3,17,Japan,Aomori,,Higashidori,,M. Chihara
Higashidori,Japan,Aomori,,41.34536,141.452213,yes,High(86),,"41.278311,141.351963,HIGASHIDORI|Unavailable|301|High(86)",13932,,28826,,Heterosiphonia,japonica,M. Chihara,1968,3,17,Japan,Aomori,,Higashidori,,M. Chihara
Higashidori,Japan,Aomori,,41.34536,141.452213,yes,High(86),,"41.278311,141.351963,HIGASHIDORI|Unavailable|301|High(86)",13933,,28825,,Heterosiphonia,japonica,M. Chihara,1968,3,17,Japan,Aomori,,Higashidori,,M. Chihara
Higashidori,Japan,Aomori,,41.34536,141.452213,yes,High(86),,"41.278311,141.351963,HIGASHIDORI|Unavailable|301|High(86)",13934,,28824,,Heterosiphonia,japonica,M. Chihara,1968,3,17,Japan,Aomori,,Higashidori,,M. Chihara
,,,,,,,,,,,,,,,,,,,,,,,,,
Hiroshima,Japan,Hiroshima,,34.34118,132.431311,yes,High(84),Unavailable,"34.606726,132.785427,HIROSHIMA|Unavailable|301|High(84),34.39729,132.475943,HIROSHIMA|Unavailable|301|High(84),34.479415,132.453119,HIROSHIMA|Unavailable|301|High(84)",5468,,150009,,Heterosiphonia,japonica,H. Tanaka,1987,4,29,Japan,Hiroshima,,Hiroshima,,H. Tanaka
Hiroshima,Japan,Hiroshima,,34.34118,132.431311,yes,High(84),Unavailable,"34.606726,132.785427,HIROSHIMA|Unavailable|301|High(84),34.39729,132.475943,HIROSHIMA|Unavailable|301|High(84),34.479415,132.453119,HIROSHIMA|Unavailable|301|High(84)",5469,,151341,,Heterosiphonia,japonica,H. Tanaka,2000,6,2,Japan,Hiroshima,,Hiroshima,,H. Tanaka
Hiroshima,Japan,Hiroshima,,34.34118,132.431311,yes,High(84),Unavailable,"34.606726,132.785427,HIROSHIMA|Unavailable|301|High(84),34.39729,132.475943,HIROSHIMA|Unavailable|301|High(84),34.479415,132.453119,HIROSHIMA|Unavailable|301|High(84)",5470,,151342,,Heterosiphonia,japonica,H. Tanaka,2002,3,17,Japan,Hiroshima,,Hiroshima,,H. Tanaka
Hiroshima,Japan,Hiroshima,,34.34118,132.431311,yes,High(84),Unavailable,"34.606726,132.785427,HIROSHIMA|Unavailable|301|High(84),34.39729,132.475943,HIROSHIMA|Unavailable|301|High(84),34.479415,132.453119,HIROSHIMA|Unavailable|301|High(84)",5471,,151343,,Heterosiphonia,japonica,H. Tanaka,2002,4,13,Japan,Hiroshima,,Hiroshima,,H. Tanaka
,,,,,,,,,,,,,,,,,,,,,,,,,
Hitachi,Japan,Ibaraki,,36.587861,140.670381,yes,High(82),,"36.633333,140.6,HITACHI|Unavailable|3036|High(82),36.62492,140.618756,HITACHI|Unavailable|301|High(82),36.6,140.65,HITACHI|Unavailable|3036|High(82)",4329,,158834,,Heterosiphonia,japonica,T. Kitayama,2002,5,27,Japan,Ibaraki,,Hitachi,,T. Kitayama
Hitachi,Japan,Ibaraki,,36.587861,140.670381,yes,High(82),,"36.633333,140.6,HITACHI|Unavailable|3036|High(82),36.62492,140.618756,HITACHI|Unavailable|301|High(82),36.6,140.65,HITACHI|Unavailable|3036|High(82)",4330,,163786,,Heterosiphonia,japonica,M. Nakaniwa,2003,7,29,Japan,Ibaraki,,Hitachi,,M. Nakaniwa
Hitachi,Japan,Ibaraki,,36.587861,140.670381,yes,High(82),,"36.633333,140.6,HITACHI|Unavailable|3036|High(82),36.62492,140.618756,HITACHI|Unavailable|301|High(82),36.6,140.65,HITACHI|Unavailable|3036|High(82)",4331,,181875,,Heterosiphonia,japonica,M. Nakaniwa,2003,7,29,Japan,Ibaraki,,Hitachi,,M. Nakaniwa
,,,,,,,,,,,,,,,,,,,,,,,,,
"Iduhara, Tsushima",Japan,Nagasaki,,34.190238,129.303764,yes,Low(38),,"34.333333,129.333333,TSUSHIMA|Unavailable|301|Low(38)",9024,,28755,,Heterosiphonia,japonica,M. Chihara,1969,3,17,Japan,Nagasaki,,"Iduhara, Tsushima",,M. Chihara
,,,,,,,,,,,,,,,,,,,,,,,,,
Isumi,Japan,Chiba,,35.259473,140.408723,yes,,,,3831,,181468,,Heterosiphonia,japonica,T. Kitayama,2013,4,26,Japan,Chiba,,Isumi,,T. Kitayama
,,,,,,,,,,,,,,,,,,,,,,,,,
Kamakura,Japan,Kanagawa,,35.302334,139.540728,yes,High(83),,"35.329998,139.537981,KAMAKURA|Unavailable|301|High(83),35.308889,139.550278,KAMAKURA|Unavailable|3036|High(83)",970,,151866,,Heterosiphonia,japonica,T. Kawase,1964,4,13,Japan,Kanagawa,,Kamakura,,
Kamakura,Japan,Kanagawa,,35.302334,139.540728,yes,High(83),,"35.329998,139.537981,KAMAKURA|Unavailable|301|High(83),35.308889,139.550278,KAMAKURA|Unavailable|3036|High(83)",971,,151867,,Heterosiphonia,japonica,T. Kawase,1964,4,13,Japan,Kanagawa,,Kamakura,,
Kamakura,Japan,Kanagawa,,35.302334,139.540728,yes,High(83),,"35.329998,139.537981,KAMAKURA|Unavailable|301|High(83),35.308889,139.550278,KAMAKURA|Unavailable|3036|High(83)",972,,28763,,Heterosiphonia,japonica,M. Chihara,1965,4,2,Japan,Kanagawa,,Kamakura,,M. Yoshizaki
Kamakura,Japan,Kanagawa,,35.302334,139.540728,yes,High(83),,"35.329998,139.537981,KAMAKURA|Unavailable|301|High(83),35.308889,139.550278,KAMAKURA|Unavailable|3036|High(83)",973,,28762,,Heterosiphonia,japonica,M. Chihara,1965,4,2,Japan,Kanagawa,,Kamakura,,M. Yoshizaki
Kamakura,Japan,Kanagawa,,35.302334,139.540728,yes,High(83),,"35.329998,139.537981,KAMAKURA|Unavailable|301|High(83),35.308889,139.550278,KAMAKURA|Unavailable|3036|High(83)",974,,28790,,Heterosiphonia,japonica,M. Chihara,1966,3,22,Japan,Kanagawa,,Kamakura,,M. Chihara
Kamakura,Japan,Kanagawa,,35.302334,139.540728,yes,High(83),,"35.329998,139.537981,KAMAKURA|Unavailable|301|High(83),35.308889,139.550278,KAMAKURA|Unavailable|3036|High(83)",975,,28789,,Heterosiphonia,japonica,M. Yoshizaki,1966,3,22,Japan,Kanagawa,,Kamakura,,M. Chihara
Kamakura,Japan,Kanagawa,,35.302334,139.540728,yes,High(83),,"35.329998,139.537981,KAMAKURA|Unavailable|301|High(83),35.308889,139.550278,KAMAKURA|Unavailable|3036|High(83)",976,,28788,,Heterosiphonia,japonica,M. Yoshizaki,1966,3,22,Japan,Kanagawa,,Kamakura,,M. Chihara
Kamakura,Japan,Kanagawa,,35.302334,139.540728,yes,High(83),,"35.329998,139.537981,KAMAKURA|Unavailable|301|High(83),35.308889,139.550278,KAMAKURA|Unavailable|3036|High(83)",977,,28787,,Heterosiphonia,japonica,M. Yoshizaki,1966,3,22,Japan,Kanagawa,,Kamakura,,M. Chihara
Kamakura,Japan,Kanagawa,,35.302334,139.540728,yes,High(83),,"35.329998,139.537981,KAMAKURA|Unavailable|301|High(83),35.308889,139.550278,KAMAKURA|Unavailable|3036|High(83)",978,,38754,,Heterosiphonia,japonica,M. Chihara,1966,3,22,Japan,Kanagawa,,Kamakura,,M. Chihara
Kamakura,Japan,Kanagawa,,35.302334,139.540728,yes,High(83),,"35.329998,139.537981,KAMAKURA|Unavailable|301|High(83),35.308889,139.550278,KAMAKURA|Unavailable|3036|High(83)",979,,38755,,Heterosiphonia,japonica,M. Chihara,1966,3,22,Japan,Kanagawa,,Kamakura,,M. Chihara
Kamakura,Japan,Kanagawa,,35.302334,139.540728,yes,High(83),,"35.329998,139.537981,KAMAKURA|Unavailable|301|High(83),35.308889,139.550278,KAMAKURA|Unavailable|3036|High(83)",980,,28736,,Heterosiphonia,japonica,M. Chihara,1966,3,22,Japan,Kanagawa,,Kamakura,,M. Chihara
Kamakura,Japan,Kanagawa,,35.302334,139.540728,yes,High(83),,"35.329998,139.537981,KAMAKURA|Unavailable|301|High(83),35.308889,139.550278,KAMAKURA|Unavailable|3036|High(83)",981,,28737,,Heterosiphonia,japonica,M. Chihara,1966,3,22,Japan,Kanagawa,,Kamakura,,M. Chihara
Kamakura,Japan,Kanagawa,,35.302334,139.540728,yes,High(83),,"35.329998,139.537981,KAMAKURA|Unavailable|301|High(83),35.308889,139.550278,KAMAKURA|Unavailable|3036|High(83)",982,,28693,,Heterosiphonia,japonica,M. Chihara,1966,3,22,Japan,Kanagawa,,Kamakura,,M. Chihara
Kamakura,Japan,Kanagawa,,35.302334,139.540728,yes,High(83),,"35.329998,139.537981,KAMAKURA|Unavailable|301|High(83),35.308889,139.550278,KAMAKURA|Unavailable|3036|High(83)",983,,28676,,Heterosiphonia,japonica,M. Chihara,1966,3,22,Japan,Kanagawa,,Kamakura,,M. Chihara
Kamakura,Japan,Kanagawa,,35.302334,139.540728,yes,High(83),,"35.329998,139.537981,KAMAKURA|Unavailable|301|High(83),35.308889,139.550278,KAMAKURA|Unavailable|3036|High(83)",984,,28670,,Heterosiphonia,japonica,M. Chihara,1966,3,22,Japan,Kanagawa,,Kamakura,,M. Chihara
Kamakura,Japan,Kanagawa,,35.302334,139.540728,yes,High(83),,"35.329998,139.537981,KAMAKURA|Unavailable|301|High(83),35.308889,139.550278,KAMAKURA|Unavailable|3036|High(83)",985,,28668,,Heterosiphonia,japonica,M. Chihara,1966,3,22,Japan,Kanagawa,,Kamakura,,M. Chihara
Kamakura,Japan,Kanagawa,,35.302334,139.540728,yes,High(83),,"35.329998,139.537981,KAMAKURA|Unavailable|301|High(83),35.308889,139.550278,KAMAKURA|Unavailable|3036|High(83)",986,,28667,,Heterosiphonia,japonica,M. Chihara,1966,3,22,Japan,Kanagawa,,Kamakura,,M. Chihara
Kamakura,Japan,Kanagawa,,35.302334,139.540728,yes,High(83),,"35.329998,139.537981,KAMAKURA|Unavailable|301|High(83),35.308889,139.550278,KAMAKURA|Unavailable|3036|High(83)",987,,28662,,Heterosiphonia,japonica,M. Chihara,1966,3,22,Japan,Kanagawa,,Kamakura,,M. Chihara
Kamakura,Japan,Kanagawa,,35.302334,139.540728,yes,High(83),,"35.329998,139.537981,KAMAKURA|Unavailable|301|High(83),35.308889,139.550278,KAMAKURA|Unavailable|3036|High(83)",988,,166547,,Heterosiphonia,japonica,M. Chihara,1966,3,22,Japan,Kanagawa,,Kamakura,,
Kamakura,Japan,Kanagawa,,35.302334,139.540728,yes,High(83),,"35.329998,139.537981,KAMAKURA|Unavailable|301|High(83),35.308889,139.550278,KAMAKURA|Unavailable|3036|High(83)",989,,39315,,Heterosiphonia,japonica,M. Chihara,1967,1,22,Japan,Kanagawa,,Kamakura,,M. Chihara
Kamakura,Japan,Kanagawa,,35.302334,139.540728,yes,High(83),,"35.329998,139.537981,KAMAKURA|Unavailable|301|High(83),35.308889,139.550278,KAMAKURA|Unavailable|3036|High(83)",990,,39316,,Heterosiphonia,japonica,M. Chihara,1967,1,22,Japan,Kanagawa,,Kamakura,,M. Chihara
Kamakura,Japan,Kanagawa,,35.302334,139.540728,yes,High(83),,"35.329998,139.537981,KAMAKURA|Unavailable|301|High(83),35.308889,139.550278,KAMAKURA|Unavailable|3036|High(83)",991,,39317,,Heterosiphonia,japonica,M. Chihara,1967,1,22,Japan,Kanagawa,,Kamakura,,M. Chihara
Kamakura,Japan,Kanagawa,,35.302334,139.540728,yes,High(83),,"35.329998,139.537981,KAMAKURA|Unavailable|301|High(83),35.308889,139.550278,KAMAKURA|Unavailable|3036|High(83)",992,,39318,,Heterosiphonia,japonica,M. Chihara,1967,1,22,Japan,Kanagawa,,Kamakura,,M. Chihara
Kamakura,Japan,Kanagawa,,35.302334,139.540728,yes,High(83),,"35.329998,139.537981,KAMAKURA|Unavailable|301|High(83),35.308889,139.550278,KAMAKURA|Unavailable|3036|High(83)",993,,39319,,Heterosiphonia,japonica,M. Chihara,1967,1,22,Japan,Kanagawa,,Kamakura,,M. Chihara
Kamakura,Japan,Kanagawa,,35.302334,139.540728,yes,High(83),,"35.329998,139.537981,KAMAKURA|Unavailable|301|High(83),35.308889,139.550278,KAMAKURA|Unavailable|3036|High(83)",994,,39320,,Heterosiphonia,japonica,M. Chihara,1967,1,22,Japan,Kanagawa,,Kamakura,,M. Chihara
Kamakura,Japan,Kanagawa,,35.302334,139.540728,yes,High(83),,"35.329998,139.537981,KAMAKURA|Unavailable|301|High(83),35.308889,139.550278,KAMAKURA|Unavailable|3036|High(83)",995,,39321,,Heterosiphonia,japonica,M. Chihara,1967,1,22,Japan,Kanagawa,,Kamakura,,M. Chihara
Kamakura,Japan,Kanagawa,,35.302334,139.540728,yes,High(83),,"35.329998,139.537981,KAMAKURA|Unavailable|301|High(83),35.308889,139.550278,KAMAKURA|Unavailable|3036|High(83)",996,,39322,,Heterosiphonia,japonica,M. Chihara,1967,1,22,Japan,Kanagawa,,Kamakura,,M. Chihara
Kamakura,Japan,Kanagawa,,35.302334,139.540728,yes,High(83),,"35.329998,139.537981,KAMAKURA|Unavailable|301|High(83),35.308889,139.550278,KAMAKURA|Unavailable|3036|High(83)",997,,39323,,Heterosiphonia,japonica,M. Chihara,1967,1,22,Japan,Kanagawa,,Kamakura,,M. Chihara
Kamakura,Japan,Kanagawa,,35.302334,139.540728,yes,High(83),,"35.329998,139.537981,KAMAKURA|Unavailable|301|High(83),35.308889,139.550278,KAMAKURA|Unavailable|3036|High(83)",998,,39324,,Heterosiphonia,japonica,M. Chihara,1967,1,22,Japan,Kanagawa,,Kamakura,,M. Chihara
Kamakura,Japan,Kanagawa,,35.302334,139.540728,yes,High(83),,"35.329998,139.537981,KAMAKURA|Unavailable|301|High(83),35.308889,139.550278,KAMAKURA|Unavailable|3036|High(83)",999,,28823,,Heterosiphonia,japonica,M. Chihara,1967,1,22,Japan,Kanagawa,,Kamakura,,M. Chihara
Kamakura,Japan,Kanagawa,,35.302334,139.540728,yes,High(83),,"35.329998,139.537981,KAMAKURA|Unavailable|301|High(83),35.308889,139.550278,KAMAKURA|Unavailable|3036|High(83)",1000,,28822,,Heterosiphonia,japonica,M. Chihara,1967,1,22,Japan,Kanagawa,,Kamakura,,M. Chihara
Kamakura,Japan,Kanagawa,,35.302334,139.540728,yes,High(83),,"35.329998,139.537981,KAMAKURA|Unavailable|301|High(83),35.308889,139.550278,KAMAKURA|Unavailable|3036|High(83)",1001,,38758,,Heterosiphonia,japonica,M. Chihara,1967,1,22,Japan,Kanagawa,,Kamakura,,M. Chihara
Kamakura,Japan,Kanagawa,,35.302334,139.540728,yes,High(83),,"35.329998,139.537981,KAMAKURA|Unavailable|301|High(83),35.308889,139.550278,KAMAKURA|Unavailable|3036|High(83)",1002,,38760,,Heterosiphonia,japonica,M. Chihara,1967,1,22,Japan,Kanagawa,,Kamakura,,M. Chihara
Kamakura,Japan,Kanagawa,,35.302334,139.540728,yes,High(83),,"35.329998,139.537981,KAMAKURA|Unavailable|301|High(83),35.308889,139.550278,KAMAKURA|Unavailable|3036|High(83)",1003,,38761,,Heterosiphonia,japonica,M. Chihara,1967,1,22,Japan,Kanagawa,,Kamakura,,M. Chihara
Kamakura,Japan,Kanagawa,,35.302334,139.540728,yes,High(83),,"35.329998,139.537981,KAMAKURA|Unavailable|301|High(83),35.308889,139.550278,KAMAKURA|Unavailable|3036|High(83)",1004,,38762,,Heterosiphonia,japonica,M. Chihara,1967,1,22,Japan,Kanagawa,,Kamakura,,M. Chihara
Kamakura,Japan,Kanagawa,,35.302334,139.540728,yes,High(83),,"35.329998,139.537981,KAMAKURA|Unavailable|301|High(83),35.308889,139.550278,KAMAKURA|Unavailable|3036|High(83)",1005,,38763,,Heterosiphonia,japonica,M. Chihara,1967,1,22,Japan,Kanagawa,,Kamakura,,M. Chihara
Kamakura,Japan,Kanagawa,,35.302334,139.540728,yes,High(83),,"35.329998,139.537981,KAMAKURA|Unavailable|301|High(83),35.308889,139.550278,KAMAKURA|Unavailable|3036|High(83)",1006,,38764,,Heterosiphonia,japonica,M. Chihara,1967,1,22,Japan,Kanagawa,,Kamakura,,M. Chihara
Kamakura,Japan,Kanagawa,,35.302334,139.540728,yes,High(83),,"35.329998,139.537981,KAMAKURA|Unavailable|301|High(83),35.308889,139.550278,KAMAKURA|Unavailable|3036|High(83)",1007,,38765,,Heterosiphonia,japonica,M. Chihara,1967,1,22,Japan,Kanagawa,,Kamakura,,M. Chihara
Kamakura,Japan,Kanagawa,,35.302334,139.540728,yes,High(83),,"35.329998,139.537981,KAMAKURA|Unavailable|301|High(83),35.308889,139.550278,KAMAKURA|Unavailable|3036|High(83)",1008,,28685,,Heterosiphonia,japonica,M. Chihara,1967,1,22,Japan,Kanagawa,,Kamakura,,M. Chihara
Kamakura,Japan,Kanagawa,,35.302334,139.540728,yes,High(83),,"35.329998,139.537981,KAMAKURA|Unavailable|301|High(83),35.308889,139.550278,KAMAKURA|Unavailable|3036|High(83)",1009,,39325,,Heterosiphonia,japonica,M. Chihara,1968,3,3,Japan,Kanagawa,,Kamakura,,M. Chihara
Kamakura,Japan,Kanagawa,,35.302334,139.540728,yes,High(83),,"35.329998,139.537981,KAMAKURA|Unavailable|301|High(83),35.308889,139.550278,KAMAKURA|Unavailable|3036|High(83)",1010,,39326,,Heterosiphonia,japonica,M. Chihara,1968,3,3,Japan,Kanagawa,,Kamakura,,M. Chihara
Kamakura,Japan,Kanagawa,,35.302334,139.540728,yes,High(83),,"35.329998,139.537981,KAMAKURA|Unavailable|301|High(83),35.308889,139.550278,KAMAKURA|Unavailable|3036|High(83)",1011,,39327,,Heterosiphonia,japonica,M. Chihara,1968,3,3,Japan,Kanagawa,,Kamakura,,M. Chihara
Kamakura,Japan,Kanagawa,,35.302334,139.540728,yes,High(83),,"35.329998,139.537981,KAMAKURA|Unavailable|301|High(83),35.308889,139.550278,KAMAKURA|Unavailable|3036|High(83)",1012,,39328,,Heterosiphonia,japonica,M. Chihara,1968,3,3,Japan,Kanagawa,,Kamakura,,M. Chihara
Kamakura,Japan,Kanagawa,,35.302334,139.540728,yes,High(83),,"35.329998,139.537981,KAMAKURA|Unavailable|301|High(83),35.308889,139.550278,KAMAKURA|Unavailable|3036|High(83)",1013,,39329,,Heterosiphonia,japonica,M. Chihara,1968,3,3,Japan,Kanagawa,,Kamakura,,M. Chihara
Kamakura,Japan,Kanagawa,,35.302334,139.540728,yes,High(83),,"35.329998,139.537981,KAMAKURA|Unavailable|301|High(83),35.308889,139.550278,KAMAKURA|Unavailable|3036|High(83)",1014,,39330,,Heterosiphonia,japonica,M. Chihara,1968,3,3,Japan,Kanagawa,,Kamakura,,M. Chihara
Kamakura,Japan,Kanagawa,,35.302334,139.540728,yes,High(83),,"35.329998,139.537981,KAMAKURA|Unavailable|301|High(83),35.308889,139.550278,KAMAKURA|Unavailable|3036|High(83)",1015,,39331,,Heterosiphonia,japonica,M. Chihara,1968,3,3,Japan,Kanagawa,,Kamakura,,M. Chihara
Kamakura,Japan,Kanagawa,,35.302334,139.540728,yes,High(83),,"35.329998,139.537981,KAMAKURA|Unavailable|301|High(83),35.308889,139.550278,KAMAKURA|Unavailable|3036|High(83)",1016,,39332,,Heterosiphonia,japonica,M. Chihara,1968,3,3,Japan,Kanagawa,,Kamakura,,M. Chihara
Kamakura,Japan,Kanagawa,,35.302334,139.540728,yes,High(83),,"35.329998,139.537981,KAMAKURA|Unavailable|301|High(83),35.308889,139.550278,KAMAKURA|Unavailable|3036|High(83)",1017,,39333,,Heterosiphonia,japonica,M. Chihara,1968,3,3,Japan,Kanagawa,,Kamakura,,M. Chihara
Kamakura,Japan,Kanagawa,,35.302334,139.540728,yes,High(83),,"35.329998,139.537981,KAMAKURA|Unavailable|301|High(83),35.308889,139.550278,KAMAKURA|Unavailable|3036|High(83)",1018,,39334,,Heterosiphonia,japonica,M. Chihara,1968,3,3,Japan,Kanagawa,,Kamakura,,M. Chihara
Kamakura,Japan,Kanagawa,,35.302334,139.540728,yes,High(83),,"35.329998,139.537981,KAMAKURA|Unavailable|301|High(83),35.308889,139.550278,KAMAKURA|Unavailable|3036|High(83)",1019,,39335,,Heterosiphonia,japonica,M. Chihara,1968,3,3,Japan,Kanagawa,,Kamakura,,M. Chihara
Kamakura,Japan,Kanagawa,,35.302334,139.540728,yes,High(83),,"35.329998,139.537981,KAMAKURA|Unavailable|301|High(83),35.308889,139.550278,KAMAKURA|Unavailable|3036|High(83)",1020,,39336,,Heterosiphonia,japonica,M. Chihara,1968,3,3,Japan,Kanagawa,,Kamakura,,M. Chihara
Kamakura,Japan,Kanagawa,,35.302334,139.540728,yes,High(83),,"35.329998,139.537981,KAMAKURA|Unavailable|301|High(83),35.308889,139.550278,KAMAKURA|Unavailable|3036|High(83)",1021,,39337,,Heterosiphonia,japonica,M. Chihara,1968,3,3,Japan,Kanagawa,,Kamakura,,M. Chihara
Kamakura,Japan,Kanagawa,,35.302334,139.540728,yes,High(83),,"35.329998,139.537981,KAMAKURA|Unavailable|301|High(83),35.308889,139.550278,KAMAKURA|Unavailable|3036|High(83)",1022,,39338,,Heterosiphonia,japonica,M. Chihara,1968,3,3,Japan,Kanagawa,,Kamakura,,M. Chihara
Kamakura,Japan,Kanagawa,,35.302334,139.540728,yes,High(83),,"35.329998,139.537981,KAMAKURA|Unavailable|301|High(83),35.308889,139.550278,KAMAKURA|Unavailable|3036|High(83)",1023,,39339,,Heterosiphonia,japonica,M. Chihara,1968,3,3,Japan,Kanagawa,,Kamakura,,M. Chihara
Kamakura,Japan,Kanagawa,,35.302334,139.540728,yes,High(83),,"35.329998,139.537981,KAMAKURA|Unavailable|301|High(83),35.308889,139.550278,KAMAKURA|Unavailable|3036|High(83)",1024,,39340,,Heterosiphonia,japonica,M. Chihara,1968,3,3,Japan,Kanagawa,,Kamakura,,M. Chihara
Kamakura,Japan,Kanagawa,,35.302334,139.540728,yes,High(83),,"35.329998,139.537981,KAMAKURA|Unavailable|301|High(83),35.308889,139.550278,KAMAKURA|Unavailable|3036|High(83)",1025,,28751,,Heterosiphonia,japonica,M. Chihara,1968,3,3,Japan,Kanagawa,,Kamakura,,M. Chihara
Kamakura,Japan,Kanagawa,,35.302334,139.540728,yes,High(83),,"35.329998,139.537981,KAMAKURA|Unavailable|301|High(83),35.308889,139.550278,KAMAKURA|Unavailable|3036|High(83)",1026,,28750,,Heterosiphonia,japonica,M. Chihara,1968,3,3,Japan,Kanagawa,,Kamakura,,M. Chihara
Kamakura,Japan,Kanagawa,,35.302334,139.540728,yes,High(83),,"35.329998,139.537981,KAMAKURA|Unavailable|301|High(83),35.308889,139.550278,KAMAKURA|Unavailable|3036|High(83)",1027,,28729,,Heterosiphonia,japonica,M. Chihara,1968,3,3,Japan,Kanagawa,,Kamakura,,M. Chihara
Kamakura,Japan,Kanagawa,,35.302334,139.540728,yes,High(83),,"35.329998,139.537981,KAMAKURA|Unavailable|301|High(83),35.308889,139.550278,KAMAKURA|Unavailable|3036|High(83)",1028,,28730,,Heterosiphonia,japonica,M. Chihara,1968,3,3,Japan,Kanagawa,,Kamakura,,M. Chihara
Kamakura,Japan,Kanagawa,,35.302334,139.540728,yes,High(83),,"35.329998,139.537981,KAMAKURA|Unavailable|301|High(83),35.308889,139.550278,KAMAKURA|Unavailable|3036|High(83)",1029,,28727,,Heterosiphonia,japonica,M. Chihara,1968,3,3,Japan,Kanagawa,,Kamakura,,M. Chihara
Kamakura,Japan,Kanagawa,,35.302334,139.540728,yes,High(83),,"35.329998,139.537981,KAMAKURA|Unavailable|301|High(83),35.308889,139.550278,KAMAKURA|Unavailable|3036|High(83)",1030,,28728,,Heterosiphonia,japonica,M. Chihara,1968,3,3,Japan,Kanagawa,,Kamakura,,M. Chihara
Kamakura,Japan,Kanagawa,,35.302334,139.540728,yes,High(83),,"35.329998,139.537981,KAMAKURA|Unavailable|301|High(83),35.308889,139.550278,KAMAKURA|Unavailable|3036|High(83)",1031,,28725,,Heterosiphonia,japonica,M. Chihara,1968,3,3,Japan,Kanagawa,,Kamakura,,M. Chihara
Kamakura,Japan,Kanagawa,,35.302334,139.540728,yes,High(83),,"35.329998,139.537981,KAMAKURA|Unavailable|301|High(83),35.308889,139.550278,KAMAKURA|Unavailable|3036|High(83)",1032,,28726,,Heterosiphonia,japonica,M. Chihara,1968,3,3,Japan,Kanagawa,,Kamakura,,M. Chihara
Kamakura,Japan,Kanagawa,,35.302334,139.540728,yes,High(83),,"35.329998,139.537981,KAMAKURA|Unavailable|301|High(83),35.308889,139.550278,KAMAKURA|Unavailable|3036|High(83)",1033,,28723,,Heterosiphonia,japonica,M. Chihara,1968,3,3,Japan,Kanagawa,,Kamakura,,M. Chihara
Kamakura,Japan,Kanagawa,,35.302334,139.540728,yes,High(83),,"35.329998,139.537981,KAMAKURA|Unavailable|301|High(83),35.308889,139.550278,KAMAKURA|Unavailable|3036|High(83)",1034,,28724,,Heterosiphonia,japonica,M. Chihara,1968,3,3,Japan,Kanagawa,,Kamakura,,M. Chihara
Kamakura,Japan,Kanagawa,,35.302334,139.540728,yes,High(83),,"35.329998,139.537981,KAMAKURA|Unavailable|301|High(83),35.308889,139.550278,KAMAKURA|Unavailable|3036|High(83)",1035,,28720,,Heterosiphonia,japonica,M. Chihara,1968,3,3,Japan,Kanagawa,,Kamakura,,M. Chihara
Kamakura,Japan,Kanagawa,,35.302334,139.540728,yes,High(83),,"35.329998,139.537981,KAMAKURA|Unavailable|301|High(83),35.308889,139.550278,KAMAKURA|Unavailable|3036|High(83)",1036,,28719,,Heterosiphonia,japonica,M. Chihara,1968,3,3,Japan,Kanagawa,,Kamakura,,M. Chihara
Kamakura,Japan,Kanagawa,,35.302334,139.540728,yes,High(83),,"35.329998,139.537981,KAMAKURA|Unavailable|301|High(83),35.308889,139.550278,KAMAKURA|Unavailable|3036|High(83)",1037,,28718,,Heterosiphonia,japonica,M. Chihara,1968,3,3,Japan,Kanagawa,,Kamakura,,M. Chihara
Kamakura,Japan,Kanagawa,,35.302334,139.540728,yes,High(83),,"35.329998,139.537981,KAMAKURA|Unavailable|301|High(83),35.308889,139.550278,KAMAKURA|Unavailable|3036|High(83)",1038,,28717,,Heterosiphonia,japonica,M. Chihara,1968,3,3,Japan,Kanagawa,,Kamakura,,M. Chihara
Kamakura,Japan,Kanagawa,,35.302334,139.540728,yes,High(83),,"35.329998,139.537981,KAMAKURA|Unavailable|301|High(83),35.308889,139.550278,KAMAKURA|Unavailable|3036|High(83)",1039,,28716,,Heterosiphonia,japonica,M. Chihara,1968,3,3,Japan,Kanagawa,,Kamakura,,M. Chihara
Kamakura,Japan,Kanagawa,,35.302334,139.540728,yes,High(83),,"35.329998,139.537981,KAMAKURA|Unavailable|301|High(83),35.308889,139.550278,KAMAKURA|Unavailable|3036|High(83)",1040,,28715,,Heterosiphonia,japonica,M. Chihara,1968,3,3,Japan,Kanagawa,,Kamakura,,M. Chihara
Kamakura,Japan,Kanagawa,,35.302334,139.540728,yes,High(83),,"35.329998,139.537981,KAMAKURA|Unavailable|301|High(83),35.308889,139.550278,KAMAKURA|Unavailable|3036|High(83)",1041,,28713,,Heterosiphonia,japonica,M. Chihara,1968,3,3,Japan,Kanagawa,,Kamakura,,M. Chihara
Kamakura,Japan,Kanagawa,,35.302334,139.540728,yes,High(83),,"35.329998,139.537981,KAMAKURA|Unavailable|301|High(83),35.308889,139.550278,KAMAKURA|Unavailable|3036|High(83)",1042,,28714,,Heterosiphonia,japonica,M. Chihara,1968,3,3,Japan,Kanagawa,,Kamakura,,M. Chihara
Kamakura,Japan,Kanagawa,,35.302334,139.540728,yes,High(83),,"35.329998,139.537981,KAMAKURA|Unavailable|301|High(83),35.308889,139.550278,KAMAKURA|Unavailable|3036|High(83)",1043,,28712,,Heterosiphonia,japonica,M. Chihara,1968,3,3,Japan,Kanagawa,,Kamakura,,M. Chihara
Kamakura,Japan,Kanagawa,,35.302334,139.540728,yes,High(83),,"35.329998,139.537981,KAMAKURA|Unavailable|301|High(83),35.308889,139.550278,KAMAKURA|Unavailable|3036|High(83)",1044,,28708,,Heterosiphonia,japonica,M. Chihara,1968,3,3,Japan,Kanagawa,,Kamakura,,M. Chihara
Kamakura,Japan,Kanagawa,,35.302334,139.540728,yes,High(83),,"35.329998,139.537981,KAMAKURA|Unavailable|301|High(83),35.308889,139.550278,KAMAKURA|Unavailable|3036|High(83)",1045,,28709,,Heterosiphonia,japonica,M. Chihara,1968,3,3,Japan,Kanagawa,,Kamakura,,M. Chihara
Kamakura,Japan,Kanagawa,,35.302334,139.540728,yes,High(83),,"35.329998,139.537981,KAMAKURA|Unavailable|301|High(83),35.308889,139.550278,KAMAKURA|Unavailable|3036|High(83)",1046,,28706,,Heterosiphonia,japonica,M. Chihara,1968,3,3,Japan,Kanagawa,,Kamakura,,M. Chihara
Kamakura,Japan,Kanagawa,,35.302334,139.540728,yes,High(83),,"35.329998,139.537981,KAMAKURA|Unavailable|301|High(83),35.308889,139.550278,KAMAKURA|Unavailable|3036|High(83)",1047,,28707,,Heterosiphonia,japonica,M. Chihara,1968,3,3,Japan,Kanagawa,,Kamakura,,M. Chihara
Kamakura,Japan,Kanagawa,,35.302334,139.540728,yes,High(83),,"35.329998,139.537981,KAMAKURA|Unavailable|301|High(83),35.308889,139.550278,KAMAKURA|Unavailable|3036|High(83)",1048,,28704,,Heterosiphonia,japonica,M. Chihara,1968,3,3,Japan,Kanagawa,,Kamakura,,M. Chihara
Kamakura,Japan,Kanagawa,,35.302334,139.540728,yes,High(83),,"35.329998,139.537981,KAMAKURA|Unavailable|301|High(83),35.308889,139.550278,KAMAKURA|Unavailable|3036|High(83)",1049,,28705,,Heterosiphonia,japonica,M. Chihara,1968,3,3,Japan,Kanagawa,,Kamakura,,M. Chihara
Kamakura,Japan,Kanagawa,,35.302334,139.540728,yes,High(83),,"35.329998,139.537981,KAMAKURA|Unavailable|301|High(83),35.308889,139.550278,KAMAKURA|Unavailable|3036|High(83)",1050,,28703,,Heterosiphonia,japonica,M. Chihara,1968,3,3,Japan,Kanagawa,,Kamakura,,M. Chihara
Kamakura,Japan,Kanagawa,,35.302334,139.540728,yes,High(83),,"35.329998,139.537981,KAMAKURA|Unavailable|301|High(83),35.308889,139.550278,KAMAKURA|Unavailable|3036|High(83)",1051,,28702,,Heterosiphonia,japonica,M. Chihara,1968,3,3,Japan,Kanagawa,,Kamakura,,M. Chihara
Kamakura,Japan,Kanagawa,,35.302334,139.540728,yes,High(83),,"35.329998,139.537981,KAMAKURA|Unavailable|301|High(83),35.308889,139.550278,KAMAKURA|Unavailable|3036|High(83)",1052,,28701,,Heterosiphonia,japonica,M. Chihara,1968,3,3,Japan,Kanagawa,,Kamakura,,M. Chihara
Kamakura,Japan,Kanagawa,,35.302334,139.540728,yes,High(83),,"35.329998,139.537981,KAMAKURA|Unavailable|301|High(83),35.308889,139.550278,KAMAKURA|Unavailable|3036|High(83)",1053,,28700,,Heterosiphonia,japonica,M. Chihara,1968,3,3,Japan,Kanagawa,,Kamakura,,M. Chihara
Kamakura,Japan,Kanagawa,,35.302334,139.540728,yes,High(83),,"35.329998,139.537981,KAMAKURA|Unavailable|301|High(83),35.308889,139.550278,KAMAKURA|Unavailable|3036|High(83)",1054,,28699,,Heterosiphonia,japonica,M. Chihara,1968,3,3,Japan,Kanagawa,,Kamakura,,M. Chihara
Kamakura,Japan,Kanagawa,,35.302334,139.540728,yes,High(83),,"35.329998,139.537981,KAMAKURA|Unavailable|301|High(83),35.308889,139.550278,KAMAKURA|Unavailable|3036|High(83)",1055,,28698,,Heterosiphonia,japonica,M. Chihara,1968,3,3,Japan,Kanagawa,,Kamakura,,M. Chihara
Kamakura,Japan,Kanagawa,,35.302334,139.540728,yes,High(83),,"35.329998,139.537981,KAMAKURA|Unavailable|301|High(83),35.308889,139.550278,KAMAKURA|Unavailable|3036|High(83)",1056,,28681,,Heterosiphonia,japonica,M. Chihara,1968,3,3,Japan,Kanagawa,,Kamakura,,M. Chihara
Kamakura,Japan,Kanagawa,,35.302334,139.540728,yes,High(83),,"35.329998,139.537981,KAMAKURA|Unavailable|301|High(83),35.308889,139.550278,KAMAKURA|Unavailable|3036|High(83)",1057,,28680,,Heterosiphonia,japonica,M. Chihara,1968,3,3,Japan,Kanagawa,,Kamakura,,M. Chihara
Kamakura,Japan,Kanagawa,,35.302334,139.540728,yes,High(83),,"35.329998,139.537981,KAMAKURA|Unavailable|301|High(83),35.308889,139.550278,KAMAKURA|Unavailable|3036|High(83)",1058,,28679,,Heterosiphonia,japonica,M. Chihara,1968,3,3,Japan,Kanagawa,,Kamakura,,M. Chihara
Kamakura,Japan,Kanagawa,,35.302334,139.540728,yes,High(83),,"35.329998,139.537981,KAMAKURA|Unavailable|301|High(83),35.308889,139.550278,KAMAKURA|Unavailable|3036|High(83)",1059,,28678,,Heterosiphonia,japonica,M. Chihara,1968,3,3,Japan,Kanagawa,,Kamakura,,M. Chihara
Kamakura,Japan,Kanagawa,,35.302334,139.540728,yes,High(83),,"35.329998,139.537981,KAMAKURA|Unavailable|301|High(83),35.308889,139.550278,KAMAKURA|Unavailable|3036|High(83)",1060,,28677,,Heterosiphonia,japonica,M. Chihara,1968,3,3,Japan,Kanagawa,,Kamakura,,M. Chihara
Kamakura,Japan,Kanagawa,,35.302334,139.540728,yes,High(83),,"35.329998,139.537981,KAMAKURA|Unavailable|301|High(83),35.308889,139.550278,KAMAKURA|Unavailable|3036|High(83)",1061,,166549,,Heterosiphonia,japonica,,1968,3,3,Japan,Kanagawa,,Kamakura,,
Kamakura,Japan,Kanagawa,,35.302334,139.540728,yes,High(83),,"35.329998,139.537981,KAMAKURA|Unavailable|301|High(83),35.308889,139.550278,KAMAKURA|Unavailable|3036|High(83)",1062,,39341,,Heterosiphonia,japonica,M. Chihara,1968,3,31,Japan,Kanagawa,,Kamakura,,M. Chihara
Kamakura,Japan,Kanagawa,,35.302334,139.540728,yes,High(83),,"35.329998,139.537981,KAMAKURA|Unavailable|301|High(83),35.308889,139.550278,KAMAKURA|Unavailable|3036|High(83)",1063,,39342,,Heterosiphonia,japonica,M. Chihara,1968,3,31,Japan,Kanagawa,,Kamakura,,M. Chihara
Kamakura,Japan,Kanagawa,,35.302334,139.540728,yes,High(83),,"35.329998,139.537981,KAMAKURA|Unavailable|301|High(83),35.308889,139.550278,KAMAKURA|Unavailable|3036|High(83)",1064,,28684,,Heterosiphonia,japonica,M. Chihara,1968,3,31,Japan,Kanagawa,,Kamakura,,M. Chihara
Kamakura,Japan,Kanagawa,,35.302334,139.540728,yes,High(83),,"35.329998,139.537981,KAMAKURA|Unavailable|301|High(83),35.308889,139.550278,KAMAKURA|Unavailable|3036|High(83)",1065,,28683,,Heterosiphonia,japonica,M. Chihara,1968,3,31,Japan,Kanagawa,,Kamakura,,M. Chihara
Kamakura,Japan,Kanagawa,,35.302334,139.540728,yes,High(83),,"35.329998,139.537981,KAMAKURA|Unavailable|301|High(83),35.308889,139.550278,KAMAKURA|Unavailable|3036|High(83)",1066,,28682,,Heterosiphonia,japonica,M. Chihara,1968,3,31,Japan,Kanagawa,,Kamakura,,M. Chihara
Kamakura,Japan,Kanagawa,,35.302334,139.540728,yes,High(83),,"35.329998,139.537981,KAMAKURA|Unavailable|301|High(83),35.308889,139.550278,KAMAKURA|Unavailable|3036|High(83)",1067,,28697,,Heterosiphonia,japonica,M. Chihara,1968,4,17,Japan,Kanagawa,,Kamakura,,M. Chihara
Kamakura,Japan,Kanagawa,,35.302334,139.540728,yes,High(83),,"35.329998,139.537981,KAMAKURA|Unavailable|301|High(83),35.308889,139.550278,KAMAKURA|Unavailable|3036|High(83)",1068,,28815,,Heterosiphonia,japonica,M. Chihara,1971,2,12,Japan,Kanagawa,,Kamakura,,M. Chihara
Kamakura,Japan,Kanagawa,,35.302334,139.540728,yes,High(83),,"35.329998,139.537981,KAMAKURA|Unavailable|301|High(83),35.308889,139.550278,KAMAKURA|Unavailable|3036|High(83)",1069,,28811,,Heterosiphonia,japonica,M. Chihara,1971,2,12,Japan,Kanagawa,,Kamakura,,M. Chihara
Kamakura,Japan,Kanagawa,,35.302334,139.540728,yes,High(83),,"35.329998,139.537981,KAMAKURA|Unavailable|301|High(83),35.308889,139.550278,KAMAKURA|Unavailable|3036|High(83)",1070,,28774,,Heterosiphonia,japonica,M. Chihara,1971,2,12,Japan,Kanagawa,,Kamakura,,M. Chihara
Kamakura,Japan,Kanagawa,,35.302334,139.540728,yes,High(83),,"35.329998,139.537981,KAMAKURA|Unavailable|301|High(83),35.308889,139.550278,KAMAKURA|Unavailable|3036|High(83)",1071,,28773,,Heterosiphonia,japonica,M. Chihara,1971,2,12,Japan,Kanagawa,,Kamakura,,M. Chihara
Kamakura,Japan,Kanagawa,,35.302334,139.540728,yes,High(83),,"35.329998,139.537981,KAMAKURA|Unavailable|301|High(83),35.308889,139.550278,KAMAKURA|Unavailable|3036|High(83)",1072,,28772,,Heterosiphonia,japonica,M. Chihara,1971,2,12,Japan,Kanagawa,,Kamakura,,M. Chihara
Kamakura,Japan,Kanagawa,,35.302334,139.540728,yes,High(83),,"35.329998,139.537981,KAMAKURA|Unavailable|301|High(83),35.308889,139.550278,KAMAKURA|Unavailable|3036|High(83)",1073,,28771,,Heterosiphonia,japonica,M. Chihara,1971,2,12,Japan,Kanagawa,,Kamakura,,M. Chihara
Kamakura,Japan,Kanagawa,,35.302334,139.540728,yes,High(83),,"35.329998,139.537981,KAMAKURA|Unavailable|301|High(83),35.308889,139.550278,KAMAKURA|Unavailable|3036|High(83)",1074,,28770,,Heterosiphonia,japonica,M. Chihara,1971,2,12,Japan,Kanagawa,,Kamakura,,M. Chihara
Kamakura,Japan,Kanagawa,,35.302334,139.540728,yes,High(83),,"35.329998,139.537981,KAMAKURA|Unavailable|301|High(83),35.308889,139.550278,KAMAKURA|Unavailable|3036|High(83)",1075,,28769,,Heterosiphonia,japonica,M. Chihara,1971,2,12,Japan,Kanagawa,,Kamakura,,M. Chihara
Kamakura,Japan,Kanagawa,,35.302334,139.540728,yes,High(83),,"35.329998,139.537981,KAMAKURA|Unavailable|301|High(83),35.308889,139.550278,KAMAKURA|Unavailable|3036|High(83)",1076,,28768,,Heterosiphonia,japonica,M. Chihara,1971,2,12,Japan,Kanagawa,,Kamakura,,M. Chihara
Kamakura,Japan,Kanagawa,,35.302334,139.540728,yes,High(83),,"35.329998,139.537981,KAMAKURA|Unavailable|301|High(83),35.308889,139.550278,KAMAKURA|Unavailable|3036|High(83)",1077,,28767,,Heterosiphonia,japonica,M. Chihara,1971,2,12,Japan,Kanagawa,,Kamakura,,M. Chihara
Kamakura,Japan,Kanagawa,,35.302334,139.540728,yes,High(83),,"35.329998,139.537981,KAMAKURA|Unavailable|301|High(83),35.308889,139.550278,KAMAKURA|Unavailable|3036|High(83)",1078,,28752,,Heterosiphonia,japonica,M. Chihara,1971,2,12,Japan,Kanagawa,,Kamakura,,M. Chihara
Kamakura,Japan,Kanagawa,,35.302334,139.540728,yes,High(83),,"35.329998,139.537981,KAMAKURA|Unavailable|301|High(83),35.308889,139.550278,KAMAKURA|Unavailable|3036|High(83)",1079,,38756,,Heterosiphonia,japonica,M. Chihara,1971,2,12,Japan,Kanagawa,,Kamakura,,
Kamakura,Japan,Kanagawa,,35.302334,139.540728,yes,High(83),,"35.329998,139.537981,KAMAKURA|Unavailable|301|High(83),35.308889,139.550278,KAMAKURA|Unavailable|3036|High(83)",1080,,38757,,Heterosiphonia,japonica,M. Chihara,1971,2,12,Japan,Kanagawa,,Kamakura,,
Kamakura,Japan,Kanagawa,,35.302334,139.540728,yes,High(83),,"35.329998,139.537981,KAMAKURA|Unavailable|301|High(83),35.308889,139.550278,KAMAKURA|Unavailable|3036|High(83)",1081,,28777,,Heterosiphonia,japonica,T. Mukohda,1971,3,15,Japan,Kanagawa,,Kamakura,,
Kamakura,Japan,Kanagawa,,35.302334,139.540728,yes,High(83),,"35.329998,139.537981,KAMAKURA|Unavailable|301|High(83),35.308889,139.550278,KAMAKURA|Unavailable|3036|High(83)",1082,,166556,,Heterosiphonia,japonica,M. Chihara,1981,2,4,Japan,Kanagawa,,Kamakura,,
Kamakura,Japan,Kanagawa,,35.302334,139.540728,yes,High(83),,"35.329998,139.537981,KAMAKURA|Unavailable|301|High(83),35.308889,139.550278,KAMAKURA|Unavailable|3036|High(83)",1083,,166557,,Heterosiphonia,japonica,M. Chihara,1981,2,4,Japan,Kanagawa,,Kamakura,,
Kamakura,Japan,Kanagawa,,35.302334,139.540728,yes,High(83),,"35.329998,139.537981,KAMAKURA|Unavailable|301|High(83),35.308889,139.550278,KAMAKURA|Unavailable|3036|High(83)",1084,,166825,,Heterosiphonia,japonica,M. Suzuki,2001,2,23,Japan,Kanagawa,,Kamakura,,M. Suzuki
Kamakura,Japan,Kanagawa,,35.302334,139.540728,yes,High(83),,"35.329998,139.537981,KAMAKURA|Unavailable|301|High(83),35.308889,139.550278,KAMAKURA|Unavailable|3036|High(83)",1085,,182577,,Heterosiphonia,japonica,M. Suzuki,2001,2,23,Japan,Kanagawa,,Kamakura,,M. Suzuki
Kamakura,Japan,Kanagawa,,35.302334,139.540728,yes,High(83),,"35.329998,139.537981,KAMAKURA|Unavailable|301|High(83),35.308889,139.550278,KAMAKURA|Unavailable|3036|High(83)",1086,,182589,,Heterosiphonia,japonica,M. Suzuki,2001,2,23,Japan,Kanagawa,,Kamakura,,M. Suzuki
Kamakura,Japan,Kanagawa,,35.302334,139.540728,yes,High(83),,"35.329998,139.537981,KAMAKURA|Unavailable|301|High(83),35.308889,139.550278,KAMAKURA|Unavailable|3036|High(83)",1087,,182588,,Heterosiphonia,japonica,M. Suzuki,2001,2,24,Japan,Kanagawa,,Kamakura,,M. Suzuki
Kamakura,Japan,Kanagawa,,35.302334,139.540728,yes,High(83),,"35.329998,139.537981,KAMAKURA|Unavailable|301|High(83),35.308889,139.550278,KAMAKURA|Unavailable|3036|High(83)",1088,,182578,,Heterosiphonia,japonica,M. Suzuki,2005,2,24,Japan,Kanagawa,,Kamakura,,M. Suzuki
Kamakura,Japan,Kanagawa,,35.302334,139.540728,yes,High(83),,"35.329998,139.537981,KAMAKURA|Unavailable|301|High(83),35.308889,139.550278,KAMAKURA|Unavailable|3036|High(83)",1089,,182579,,Heterosiphonia,japonica,M. Suzuki,2005,2,24,Japan,Kanagawa,,Kamakura,,M. Suzuki
Kamakura,Japan,Kanagawa,,35.302334,139.540728,yes,High(83),,"35.329998,139.537981,KAMAKURA|Unavailable|301|High(83),35.308889,139.550278,KAMAKURA|Unavailable|3036|High(83)",1090,,164174,,Heterosiphonia,japonica,T. Yokosawa,2005,3,14,Japan,Kanagawa,,Kamakura,,T. Yokosawa
Kamakura,Japan,Kanagawa,,35.302334,139.540728,yes,High(83),,"35.329998,139.537981,KAMAKURA|Unavailable|301|High(83),35.308889,139.550278,KAMAKURA|Unavailable|3036|High(83)",1091,,178905,,Heterosiphonia,japonica,M. Kimura,2007,**,**,Japan,Kanagawa,,Kamakura,,T. Kitayama
Kamakura,Japan,Kanagawa,,35.302334,139.540728,yes,High(83),,"35.329998,139.537981,KAMAKURA|Unavailable|301|High(83),35.308889,139.550278,KAMAKURA|Unavailable|3036|High(83)",1092,,178981,,Heterosiphonia,japonica,M. Tanaka,2007,**,**,Japan,Kanagawa,,Kamakura,,T. Kitayama
Kamakura,Japan,Kanagawa,,35.302334,139.540728,yes,High(83),,"35.329998,139.537981,KAMAKURA|Unavailable|301|High(83),35.308889,139.550278,KAMAKURA|Unavailable|3036|High(83)",1093,,178982,,Heterosiphonia,japonica,J. Sugiyama,2007,**,**,Japan,Kanagawa,,Kamakura,,T. Kitayama
Kamakura,Japan,Kanagawa,,35.302334,139.540728,yes,High(83),,"35.329998,139.537981,KAMAKURA|Unavailable|301|High(83),35.308889,139.550278,KAMAKURA|Unavailable|3036|High(83)",1094,,179022,,Heterosiphonia,japonica,M. Tanaka,2008,**,**,Japan,Kanagawa,,Kamakura,,T. Kitayama
Kamakura,Japan,Kanagawa,,35.302334,139.540728,yes,High(83),,"35.329998,139.537981,KAMAKURA|Unavailable|301|High(83),35.308889,139.550278,KAMAKURA|Unavailable|3036|High(83)",1095,,179539,,Heterosiphonia,japonica,J. Sugiyama,2010,**,**,Japan,Kanagawa,,Kamakura,,T. Kitayama
,,,,,,,,,,,,,,,,,,,,,,,,,
Kitaibaraki,Japan,Ibaraki,,36.803953,140.767509,yes,High(86),,"36.783333,140.75,KITAIBARAKI|Unavailable|3036|High(86),36.839869,140.687358,KITAIBARAKI|Unavailable|301|High(86),36.310353,140.316149,IBARAKI|Unavailable|301|Low(24)",3037,,163902,,Heterosiphonia,japonica,M. Nakaniwa,1974,8,9,Japan,Ibaraki,,Kitaibaraki,,M. Nakaniwa
,,,,,,,,,,,,,,,,,,,,,,,,,
Kominato,Japan,Chiba,,35.110488,140.197082,yes,High(83),,"35.116667,140.2,KOMINATO|Unavailable|3036|High(83)",3037,,158118,,Heterosiphonia,japonica,M. Higashi,1933,4,,Japan,Chiba,,Kominato,,
Kominato,Japan,Chiba,,35.110488,140.197082,yes,High(83),,"35.116667,140.2,KOMINATO|Unavailable|3036|High(83)",3038,,172721,,Heterosiphonia,japonica,Y. Yamaoka,1996,4,4,Japan,Chiba,,Kominato,,T. Kitayama
Kominato,Japan,Chiba,,35.110488,140.197082,yes,High(83),,"35.116667,140.2,KOMINATO|Unavailable|3036|High(83)",3039,,172722,,Heterosiphonia,japonica,Y. Yamaoka,1996,4,4,Japan,Chiba,,Kominato,,T. Kitayama
,,,,,,,,,,,,,,,,,,,,,,,,,
Kushimoto,Japan,Wakayama,,33.467669,135.785736,yes,High(84),,"33.466667,135.783333,KUSHIMOTO|Unavailable|3036|High(84)",3037,,45160,,Heterosiphonia,japonica,M. Yoshizaki,1978,4,22,Japan,Wakayama,,Kushimoto,,
Kushimoto,Japan,Wakayama,,33.467669,135.785736,yes,High(84),,"33.466667,135.783333,KUSHIMOTO|Unavailable|3036|High(84)",3038,,45161,,Heterosiphonia,japonica,M. Yoshizaki,1978,4,22,Japan,Wakayama,,Kushimoto,,
,,,,,,,,,,,,,,,,,,,,,,,,,
Minamiizu,Japan,Shizuoka,,34.61504,138.872151,yes,,,,3601,,176742,,Heterosiphonia,japonica,K. Matsue,1980,**,**,Japan,Shizuoka,,Minamiizu,,K. Matsue
,,,,,,,,,,,,,,,,,,,,,,,,,
Minami-Izu,Japan,Shizuoka,,34.61504,138.872151,yes,Low(36),,"25.819444,131.25,MINAMI|Unavailable|3036|Low(36),24.779549,141.323603,MINAMI|Unavailable|3036|Low(36),36.066667,133.1,MINAMI|Unavailable|3036|Low(36)",3639,,28664,,Heterosiphonia,japonica,M. Chihara,1966,3,23,Japan,Shizuoka,,Minami-Izu,,M. Chihara
Minami-Izu,Japan,Shizuoka,,34.61504,138.872151,yes,Low(36),,"25.819444,131.25,MINAMI|Unavailable|3036|Low(36),24.779549,141.323603,MINAMI|Unavailable|3036|Low(36),36.066667,133.1,MINAMI|Unavailable|3036|Low(36)",3640,,28663,,Heterosiphonia,japonica,M. Chihara,1966,3,23,Japan,Shizuoka,,Minami-Izu,,M. Chihara
,,,,,,,,,,,,,,,,,,,,,,,,,
Miura,Japan,Kanagawa,,35.133577,139.641383,yes,High(80),,"35.167544,139.64104,MIURA|Unavailable|301|High(80),35.14,139.619167,MIURA|Unavailable|3036|High(80)",6061,,159857,,Heterosiphonia,japonica,S. Ohashi,1933,5,11,Japan,Kanagawa,,Miura,,
Miura,Japan,Kanagawa,,35.133577,139.641383,yes,High(80),,"35.167544,139.64104,MIURA|Unavailable|301|High(80),35.14,139.619167,MIURA|Unavailable|3036|High(80)",6062,,159859,,Heterosiphonia,japonica,S. Ohashi,1933,5,11,Japan,Kanagawa,,Miura,,
Miura,Japan,Kanagawa,,35.133577,139.641383,yes,High(80),,"35.167544,139.64104,MIURA|Unavailable|301|High(80),35.14,139.619167,MIURA|Unavailable|3036|High(80)",6063,,28816,,Heterosiphonia,japonica,Ogawa,1970,4,,Japan,Kanagawa,,Miura,,M. Chihara
Miura,Japan,Kanagawa,,35.133577,139.641383,yes,High(80),,"35.167544,139.64104,MIURA|Unavailable|301|High(80),35.14,139.619167,MIURA|Unavailable|3036|High(80)",6064,,28827,,Heterosiphonia,japonica,M. Chihara,1972,4,14,Japan,Kanagawa,,Miura,,M. Chihara
,,,,,,,,,,,,,,,,,,,,,,,,,
Muroran,Japan,Hokkaido,,42.31316,140.962307,yes,High(82),,"42.317222,140.988056,MURORAN|Unavailable|3036|High(82),42.366585,140.98845,MURORAN|Unavailable|301|High(82),42.317825,140.976168,MURORAN|Unavailable|301|High(82)",3037,,179822,,Heterosiphonia,japonica,M. Suzuki,2002,**,**,Japan,Hokkaido,,Muroran,,M. Suzuki
,,,,,,,,,,,,,,,,,,,,,,,,,
Niigata,Japan,Niigata,,37.932015,139.027388,yes,High(82),Unavailable,"37.523433,138.91748,NIIGATA|Unavailable|301|High(82),37.827378,139.033025,NIIGATA|Unavailable|301|High(82),37.902222,139.023611,NIIGATA|Unavailable|301|High(82),37.912005,139.061745,NIIGATA|Unavailable|301|High(82)",17139,,170717,,Heterosiphonia,japonica,K. Ikehara,1987,4,27,Japan,Niigata,,Niigata,,T. Yoshida
,,,,,,,,,,,,,,,,,,,,,,,,,
Ohara,Japan,Chiba,,35.249439,140.410799,yes,High(80),,"35.25,140.383333,OHARA|Unavailable|3036|High(80)",3037,,163566,,Heterosiphonia,japonica,M. Chihara,1967,4,13,Japan,Chiba,,Ohara,,
Ohara,Japan,Chiba,,35.249439,140.410799,yes,High(80),,"35.25,140.383333,OHARA|Unavailable|3036|High(80)",3038,,28748,,Heterosiphonia,japonica,M. Chihara,1967,4,13,Japan,Chiba,,Ohara,,M. Chihara
Ohara,Japan,Chiba,,35.249439,140.410799,yes,High(80),,"35.25,140.383333,OHARA|Unavailable|3036|High(80)",3039,,28747,,Heterosiphonia,japonica,M. Chihara,1967,4,13,Japan,Chiba,,Ohara,,M. Chihara
Ohara,Japan,Chiba,,35.249439,140.410799,yes,High(80),,"35.25,140.383333,OHARA|Unavailable|3036|High(80)",3040,,28694,,Heterosiphonia,japonica,M. Chihara,1967,4,13,Japan,Chiba,,Ohara,,M. Chihara
Ohara,Japan,Chiba,,35.249439,140.410799,yes,High(80),,"35.25,140.383333,OHARA|Unavailable|3036|High(80)",3041,,28695,,Heterosiphonia,japonica,M. Chihara,1967,4,13,Japan,Chiba,,Ohara,,M. Chihara
Ohara,Japan,Chiba,,35.249439,140.410799,yes,High(80),,"35.25,140.383333,OHARA|Unavailable|3036|High(80)",3042,,28671,,Heterosiphonia,japonica,H. Kawase,1967,4,26,Japan,Chiba,,Ohara,,M. Chihara
Ohara,Japan,Chiba,,35.249439,140.410799,yes,High(80),,"35.25,140.383333,OHARA|Unavailable|3036|High(80)",3043,,28812,,Heterosiphonia,japonica,S. Hiraide,1971,4,28,Japan,Chiba,,Ohara,,M. Chihara
Ohara,Japan,Chiba,,35.249439,140.410799,yes,High(80),,"35.25,140.383333,OHARA|Unavailable|3036|High(80)",3044,,28808,,Heterosiphonia,japonica,S. Hiraide,1971,4,28,Japan,Chiba,,Ohara,,M. Chihara
Ohara,Japan,Chiba,,35.249439,140.410799,yes,High(80),,"35.25,140.383333,OHARA|Unavailable|3036|High(80)",3045,,28807,,Heterosiphonia,japonica,S. Hiraide,1971,4,28,Japan,Chiba,,Ohara,,M. Chihara
,,,,,,,,,,,,,,,,,,,,,,,,,
Ohma,Japan,Aomori,,41.547776,140.911823,yes,,,,5714,,44401,,Heterosiphonia,japonica,T. Kitayama,1988,1,20,Japan,Aomori,,Ohma,,T. Kitayama
,,,,,,,,,,,,,,,,,,,,,,,,,
Onagawa,Japan,Miyagi,,38.439668,141.461703,yes,High(82),,"38.444912,141.432692,ONAGAWA|Unavailable|301|High(82),38.444038,141.445872,ONAGAWA|Unavailable|3036|High(82)",834,,172683,,Heterosiphonia,japonica,T. Yokosawa,2001,2,21,Japan,Miyagi,,Onagawa,,M. Suzuki
Onagawa,Japan,Miyagi,,38.439668,141.461703,yes,High(82),,"38.444912,141.432692,ONAGAWA|Unavailable|301|High(82),38.444038,141.445872,ONAGAWA|Unavailable|3036|High(82)",835,,172684,,Heterosiphonia,japonica,T. Yokosawa,2001,2,21,Japan,Miyagi,,Onagawa,,M. Suzuki
,,,,,,,,,,,,,,,,,,,,,,,,,
Osakikamishima,Japan,Hiroshima,,34.248659,132.864981,yes,Low(26),,"34.233333,132.9,OSAKIKAMI|Unavailable|301|Low(26),35.336389,139.154722,KAMISHIMA|Unavailable|3036|Low(26),35.333333,132.85,KAMISHIMA|Unavailable|3036|Low(26),35.333333,132.85,KAMISHIMA|Unavailable|301|Low(26),33.75,133.55,MISHIMA|Unavailable|3036|Low(24),40.674371,140.618306,MISHIMA|Unavailable|3036|Low(24),34.766667,131.15,MISHIMA|Unavailable|301|Low(24),35.139395,138.948823,MISHIMA|Unavailable|301|Low(24),37.116667,140.866667,MISHIMA|Unavailable|3036|Low(24),34.683333,137.75,MISHIMA|Unavailable|3036|Low(24),34.6,135.85,MISHIMA|Unavailable|3036|Low(24),33.983333,133.55,MISHIMA|Unavailable|3036|Low(24),37.666667,140.416667,MISHIMA|Unavailable|3036|Low(24),34.898869,135.653253,MISHIMA|Unavailable|301|Low(24),35.116667,138.916667,MISHIMA|Unavailable|3036|Low(24),40.627744,140.409842,MISHIMA|Unavailable|3036|Low(24)",8451,,46444,,Heterosiphonia,japonica,H. Tanaka,1999,4,16,Japan,Hiroshima,,Osakikamishima,,H. Tanaka
,,,,,,,,,,,,,,,,,,,,,,,,,
Rumoi,Japan,Hokkaido,,43.954725,141.633554,yes,High(80),,"43.94286,141.65175,RUMOI|Unavailable|301|High(80),43.934444,141.642778,RUMOI|Unavailable|3036|High(80)",2320,,169438,,Heterosiphonia,japonica,K. Inagaki,1963,3,26,Japan,Hokkaido,,Rumoi,,T. Kitayama
Rumoi,Japan,Hokkaido,,43.954725,141.633554,yes,High(80),,"43.94286,141.65175,RUMOI|Unavailable|301|High(80),43.934444,141.642778,RUMOI|Unavailable|3036|High(80)",2321,,169414,,Heterosiphonia,japonica,K. Inagaki,1963,5,12,Japan,Hokkaido,,Rumoi,,T. Kitayama
,,,,,,,,,,,,,,,,,,,,,,,,,
,,,,,,,,,,,,,,,,,,,,,,,,,
Ryotsu,Japan,Niigata,,38.083333,138.442946,yes,High(81),,"38.083333,138.433333,RYOTSU|Unavailable|3036|High(81)",3037,,166823,,Heterosiphonia,japonica,M. Suzuki,2002,7,28,Japan,Niigata,,Ryotsu,,M. Suzuki
Ryotsu,Japan,Niigata,,38.083941,138.440543,yes,High(81),,"38.083333,138.433333,RYOTSU|Unavailable|3036|High(81)",3036,Sado,182581,,Heterosiphonia,japonica,M. Suzuki,2003,7,23,Japan,Niigata,Sado,Ryotsu,,M. Suzuki
,,,,,,,,,,,,,,,,,,,,,,,,,
Sado,Japan,Niigata,,37.97816,138.303687,yes,High(79),,"38.024963,138.359305,SADO|Unavailable|3036|High(79),38.04439,138.389844,SADO|Unavailable|301|High(79),38,138.416667,SADO|Unavailable|301|High(79)",4006,Sado,175123,,Heterosiphonia,japonica,S. Yada,1994,**,**,Japan,Niigata,Sado,Sado,,M. Yoshizaki
,,,,,,,,,,,,,,,,,,,,,,,,,
Shido,Japan,Kagawa,,34.328437,134.173333,yes,High(80),,"34.323333,134.173333,SHIDO|Unavailable|3036|High(80)",3037,,162719,,Heterosiphonia,japonica,S. Mitani,1991,3,24,Japan,Kagawa,,Shido,,T. Kitayama
,,,,,,,,,,,,,,,,,,,,,,,,,
Shimoda,Japan,Shizuoka,,34.661443,138.947082,yes,High(82),,"34.666667,138.95,SHIMODA|Unavailable|3036|High(82),34.708793,138.921476,SHIMODA|Unavailable|301|High(82)",3037,,161375,,Heterosiphonia,japonica,M. Chihara,1955,3,10,Japan,Shizuoka,,Shimoda,,
Shimoda,Japan,Shizuoka,,34.661443,138.947082,yes,High(82),,"34.666667,138.95,SHIMODA|Unavailable|3036|High(82),34.708793,138.921476,SHIMODA|Unavailable|301|High(82)",3038,,161377,,Heterosiphonia,japonica,M. Chihara,1956,3,1,Japan,Shizuoka,,Shimoda,,
Shimoda,Japan,Shizuoka,,34.661443,138.947082,yes,High(82),,"34.666667,138.95,SHIMODA|Unavailable|3036|High(82),34.708793,138.921476,SHIMODA|Unavailable|301|High(82)",3039,,166545,,Heterosiphonia,japonica,M. Chihara,1956,5,6,Japan,Shizuoka,,Shimoda,,
Shimoda,Japan,Shizuoka,,34.661443,138.947082,yes,High(82),,"34.666667,138.95,SHIMODA|Unavailable|3036|High(82),34.708793,138.921476,SHIMODA|Unavailable|301|High(82)",3040,,163449,,Heterosiphonia,japonica,M. Chihara,1959,4,12,Japan,Shizuoka,,Shimoda,,M. Chihara
Shimoda,Japan,Shizuoka,,34.661443,138.947082,yes,High(82),,"34.666667,138.95,SHIMODA|Unavailable|3036|High(82),34.708793,138.921476,SHIMODA|Unavailable|301|High(82)",3041,,28710,,Heterosiphonia,japonica,M. Chihara,1965,4,5,Japan,Shizuoka,,Shimoda,,M. Chihara
Shimoda,Japan,Shizuoka,,34.661443,138.947082,yes,High(82),,"34.666667,138.95,SHIMODA|Unavailable|3036|High(82),34.708793,138.921476,SHIMODA|Unavailable|301|High(82)",3042,,28711,,Heterosiphonia,japonica,M. Chihara,1965,4,5,Japan,Shizuoka,,Shimoda,,M. Chihara
Shimoda,Japan,Shizuoka,,34.661443,138.947082,yes,High(82),,"34.666667,138.95,SHIMODA|Unavailable|3036|High(82),34.708793,138.921476,SHIMODA|Unavailable|301|High(82)",3043,,28690,,Heterosiphonia,japonica,M. Chihara,1965,4,5,Japan,Shizuoka,,Shimoda,,M. Chihara
Shimoda,Japan,Shizuoka,,34.661443,138.947082,yes,High(82),,"34.666667,138.95,SHIMODA|Unavailable|3036|High(82),34.708793,138.921476,SHIMODA|Unavailable|301|High(82)",3044,,28672,,Heterosiphonia,japonica,M. Chihara,1965,4,5,Japan,Shizuoka,,Shimoda,,M. Chihara
Shimoda,Japan,Shizuoka,,34.661443,138.947082,yes,High(82),,"34.666667,138.95,SHIMODA|Unavailable|3036|High(82),34.708793,138.921476,SHIMODA|Unavailable|301|High(82)",3045,,28673,,Heterosiphonia,japonica,M. Chihara,1965,4,5,Japan,Shizuoka,,Shimoda,,M. Chihara
Shimoda,Japan,Shizuoka,,34.661443,138.947082,yes,High(82),,"34.666667,138.95,SHIMODA|Unavailable|3036|High(82),34.708793,138.921476,SHIMODA|Unavailable|301|High(82)",3046,,28689,,Heterosiphonia,japonica,M. Chihara,1965,4,6,Japan,Shizuoka,,Shimoda,,M. Chihara
Shimoda,Japan,Shizuoka,,34.661443,138.947082,yes,High(82),,"34.666667,138.95,SHIMODA|Unavailable|3036|High(82),34.708793,138.921476,SHIMODA|Unavailable|301|High(82)",3047,,28688,,Heterosiphonia,japonica,M. Chihara,1965,4,6,Japan,Shizuoka,,Shimoda,,M. Chihara
Shimoda,Japan,Shizuoka,,34.661443,138.947082,yes,High(82),,"34.666667,138.95,SHIMODA|Unavailable|3036|High(82),34.708793,138.921476,SHIMODA|Unavailable|301|High(82)",3048,,28661,,Heterosiphonia,japonica,M. Chihara,1965,4,6,Japan,Shizuoka,,Shimoda,,M. Chihara
Shimoda,Japan,Shizuoka,,34.661443,138.947082,yes,High(82),,"34.666667,138.95,SHIMODA|Unavailable|3036|High(82),34.708793,138.921476,SHIMODA|Unavailable|301|High(82)",3049,,28735,,Heterosiphonia,japonica,M. Chihara,1966,3,24,Japan,Shizuoka,,Shimoda,,M. Chihara
Shimoda,Japan,Shizuoka,,34.661443,138.947082,yes,High(82),,"34.666667,138.95,SHIMODA|Unavailable|3036|High(82),34.708793,138.921476,SHIMODA|Unavailable|301|High(82)",3050,,28734,,Heterosiphonia,japonica,M. Chihara,1966,3,24,Japan,Shizuoka,,Shimoda,,M. Chihara
Shimoda,Japan,Shizuoka,,34.661443,138.947082,yes,High(82),,"34.666667,138.95,SHIMODA|Unavailable|3036|High(82),34.708793,138.921476,SHIMODA|Unavailable|301|High(82)",3051,,28731,,Heterosiphonia,japonica,M. Chihara,1966,3,24,Japan,Shizuoka,,Shimoda,,M. Chihara
Shimoda,Japan,Shizuoka,,34.661443,138.947082,yes,High(82),,"34.666667,138.95,SHIMODA|Unavailable|3036|High(82),34.708793,138.921476,SHIMODA|Unavailable|301|High(82)",3052,,28732,,Heterosiphonia,japonica,M. Chihara,1966,3,24,Japan,Shizuoka,,Shimoda,,M. Chihara
Shimoda,Japan,Shizuoka,,34.661443,138.947082,yes,High(82),,"34.666667,138.95,SHIMODA|Unavailable|3036|High(82),34.708793,138.921476,SHIMODA|Unavailable|301|High(82)",3053,,28733,,Heterosiphonia,japonica,M. Chihara,1966,3,24,Japan,Shizuoka,,Shimoda,,M. Chihara
Shimoda,Japan,Shizuoka,,34.661443,138.947082,yes,High(82),,"34.666667,138.95,SHIMODA|Unavailable|3036|High(82),34.708793,138.921476,SHIMODA|Unavailable|301|High(82)",3054,,28691,,Heterosiphonia,japonica,M. Chihara,1966,3,24,Japan,Shizuoka,,Shimoda,,M. Chihara
Shimoda,Japan,Shizuoka,,34.661443,138.947082,yes,High(82),,"34.666667,138.95,SHIMODA|Unavailable|3036|High(82),34.708793,138.921476,SHIMODA|Unavailable|301|High(82)",3055,,28687,,Heterosiphonia,japonica,M. Chihara,1966,3,24,Japan,Shizuoka,,Shimoda,,M. Chihara
Shimoda,Japan,Shizuoka,,34.661443,138.947082,yes,High(82),,"34.666667,138.95,SHIMODA|Unavailable|3036|High(82),34.708793,138.921476,SHIMODA|Unavailable|301|High(82)",3056,,28686,,Heterosiphonia,japonica,M. Chihara,1966,3,24,Japan,Shizuoka,,Shimoda,,M. Chihara
Shimoda,Japan,Shizuoka,,34.661443,138.947082,yes,High(82),,"34.666667,138.95,SHIMODA|Unavailable|3036|High(82),34.708793,138.921476,SHIMODA|Unavailable|301|High(82)",3057,,168851,,Heterosiphonia,japonica,,1970,3,25,Japan,Shizuoka,,Shimoda,,M. Yoshizaki
Shimoda,Japan,Shizuoka,,34.661443,138.947082,yes,High(82),,"34.666667,138.95,SHIMODA|Unavailable|3036|High(82),34.708793,138.921476,SHIMODA|Unavailable|301|High(82)",3058,,166544,,Heterosiphonia,japonica,M. Chihara,1980,4,4,Japan,Shizuoka,,Shimoda,,
Shimoda,Japan,Shizuoka,,34.661443,138.947082,yes,High(82),,"34.666667,138.95,SHIMODA|Unavailable|3036|High(82),34.708793,138.921476,SHIMODA|Unavailable|301|High(82)",3059,,166558,,Heterosiphonia,japonica,M. Chihara,1980,4,12,Japan,Shizuoka,,Shimoda,,
Shimoda,Japan,Shizuoka,,34.661443,138.947082,yes,High(82),,"34.666667,138.95,SHIMODA|Unavailable|3036|High(82),34.708793,138.921476,SHIMODA|Unavailable|301|High(82)",3060,,166559,,Heterosiphonia,japonica,M. Chihara,1980,4,12,Japan,Shizuoka,,Shimoda,,
Shimoda,Japan,Shizuoka,,34.661443,138.947082,yes,High(82),,"34.666667,138.95,SHIMODA|Unavailable|3036|High(82),34.708793,138.921476,SHIMODA|Unavailable|301|High(82)",3061,,166560,,Heterosiphonia,japonica,M. Chihara,1980,4,12,Japan,Shizuoka,,Shimoda,,
Shimoda,Japan,Shizuoka,,34.661443,138.947082,yes,High(82),,"34.666667,138.95,SHIMODA|Unavailable|3036|High(82),34.708793,138.921476,SHIMODA|Unavailable|301|High(82)",3062,,166561,,Heterosiphonia,japonica,M. Chihara,1980,4,12,Japan,Shizuoka,,Shimoda,,
Shimoda,Japan,Shizuoka,,34.661443,138.947082,yes,High(82),,"34.666667,138.95,SHIMODA|Unavailable|3036|High(82),34.708793,138.921476,SHIMODA|Unavailable|301|High(82)",3063,,166555,,Heterosiphonia,japonica,M. Chihara,1980,4,19,Japan,Shizuoka,,Shimoda,,
Shimoda,Japan,Shizuoka,,34.661443,138.947082,yes,High(82),,"34.666667,138.95,SHIMODA|Unavailable|3036|High(82),34.708793,138.921476,SHIMODA|Unavailable|301|High(82)",3064,,173908,,Heterosiphonia,japonica,K. Matsue,1983,4,2,Japan,Shizuoka,,Shimoda,,K. Matsue
Shimoda,Japan,Shizuoka,,34.661443,138.947082,yes,High(82),,"34.666667,138.95,SHIMODA|Unavailable|3036|High(82),34.708793,138.921476,SHIMODA|Unavailable|301|High(82)",3065,,173909,,Heterosiphonia,japonica,K. Matsue,1983,4,2,Japan,Shizuoka,,Shimoda,,K. Matsue
Shimoda,Japan,Shizuoka,,34.661443,138.947082,yes,High(82),,"34.666667,138.95,SHIMODA|Unavailable|3036|High(82),34.708793,138.921476,SHIMODA|Unavailable|301|High(82)",3066,,173913,,Heterosiphonia,japonica,K. Matsue,1983,4,2,Japan,Shizuoka,,Shimoda,,K. Matsue
Shimoda,Japan,Shizuoka,,34.661443,138.947082,yes,High(82),,"34.666667,138.95,SHIMODA|Unavailable|3036|High(82),34.708793,138.921476,SHIMODA|Unavailable|301|High(82)",3067,,173925,,Heterosiphonia,japonica,K. Matsue,1983,4,2,Japan,Shizuoka,,Shimoda,,K. Matsue
Shimoda,Japan,Shizuoka,,34.661443,138.947082,yes,High(82),,"34.666667,138.95,SHIMODA|Unavailable|3036|High(82),34.708793,138.921476,SHIMODA|Unavailable|301|High(82)",3068,,173987,,Heterosiphonia,japonica,K. Matsue,1983,4,2,Japan,Shizuoka,,Shimoda,,K. Matsue
Shimoda,Japan,Shizuoka,,34.661443,138.947082,yes,High(82),,"34.666667,138.95,SHIMODA|Unavailable|3036|High(82),34.708793,138.921476,SHIMODA|Unavailable|301|High(82)",3069,,173910,,Heterosiphonia,japonica,K. Matsue,1983,4,4,Japan,Shizuoka,,Shimoda,,
Shimoda,Japan,Shizuoka,,34.661443,138.947082,yes,High(82),,"34.666667,138.95,SHIMODA|Unavailable|3036|High(82),34.708793,138.921476,SHIMODA|Unavailable|301|High(82)",3070,,173893,,Heterosiphonia,japonica,K. Matsue,1983,4,5,Japan,Shizuoka,,Shimoda,,
Shimoda,Japan,Shizuoka,,34.661443,138.947082,yes,High(82),,"34.666667,138.95,SHIMODA|Unavailable|3036|High(82),34.708793,138.921476,SHIMODA|Unavailable|301|High(82)",3071,,173894,,Heterosiphonia,japonica,K. Matsue,1983,4,5,Japan,Shizuoka,,Shimoda,,
Shimoda,Japan,Shizuoka,,34.661443,138.947082,yes,High(82),,"34.666667,138.95,SHIMODA|Unavailable|3036|High(82),34.708793,138.921476,SHIMODA|Unavailable|301|High(82)",3072,,176735,,Heterosiphonia,japonica,K. Matsue,1984,**,**,Japan,Shizuoka,,Shimoda,,K. Matsue
,,,,,,,,,,,,,,,,,,,,,,,,,
Shirahama,Japan,Chiba,,34.901323,139.900717,yes,High(84),,"34.916667,139.933333,SHIRAHAMA|Unavailable|3036|High(84)",3037,,39343,,Heterosiphonia,japonica,M. Chihara,1968,5,11,Japan,Chiba,,Shirahama,,M. Chihara
Shirahama,Japan,Chiba,,34.901323,139.900717,yes,High(84),,"34.916667,139.933333,SHIRAHAMA|Unavailable|3036|High(84)",3038,,28760,,Heterosiphonia,japonica,M. Chihara,1968,5,11,Japan,Chiba,,Shirahama,,M. Chihara
Shirahama,Japan,Chiba,,34.901323,139.900717,yes,High(84),,"34.916667,139.933333,SHIRAHAMA|Unavailable|3036|High(84)",3039,,28759,,Heterosiphonia,japonica,M. Chihara,1968,5,11,Japan,Chiba,,Shirahama,,M. Chihara
Shirahama,Japan,Chiba,,34.901323,139.900717,yes,High(84),,"34.916667,139.933333,SHIRAHAMA|Unavailable|3036|High(84)",3040,,28739,,Heterosiphonia,japonica,M. Chihara,1968,5,11,Japan,Chiba,,Shirahama,,M. Chihara
Shirahama,Japan,Chiba,,34.901323,139.900717,yes,High(84),,"34.916667,139.933333,SHIRAHAMA|Unavailable|3036|High(84)",3041,,28761,,Heterosiphonia,japonica,M. Chihara,1968,5,29,Japan,Chiba,,Shirahama,,M. Chihara
Shirahama,Japan,Chiba,,34.901323,139.900717,yes,High(84),,"34.916667,139.933333,SHIRAHAMA|Unavailable|3036|High(84)",3042,,28744,,Heterosiphonia,japonica,M. Chihara,1968,5,29,Japan,Chiba,,Shirahama,,M. Chihara
Shirahama,Japan,Chiba,,34.901323,139.900717,yes,High(84),,"34.916667,139.933333,SHIRAHAMA|Unavailable|3036|High(84)",3043,,28745,,Heterosiphonia,japonica,M. Chihara,1968,5,29,Japan,Chiba,,Shirahama,,M. Chihara
Shirahama,Japan,Chiba,,34.901323,139.900717,yes,High(84),,"34.916667,139.933333,SHIRAHAMA|Unavailable|3036|High(84)",3044,,28742,,Heterosiphonia,japonica,M. Chihara,1968,5,29,Japan,Chiba,,Shirahama,,M. Chihara
Shirahama,Japan,Chiba,,34.901323,139.900717,yes,High(84),,"34.916667,139.933333,SHIRAHAMA|Unavailable|3036|High(84)",3045,,28743,,Heterosiphonia,japonica,M. Chihara,1968,5,29,Japan,Chiba,,Shirahama,,M. Chihara
Shirahama,Japan,Chiba,,34.901323,139.900717,yes,High(84),,"34.916667,139.933333,SHIRAHAMA|Unavailable|3036|High(84)",3046,,28740,,Heterosiphonia,japonica,M. Chihara,1968,5,29,Japan,Chiba,,Shirahama,,M. Chihara
Shirahama,Japan,Chiba,,34.901323,139.900717,yes,High(84),,"34.916667,139.933333,SHIRAHAMA|Unavailable|3036|High(84)",3047,,28741,,Heterosiphonia,japonica,M. Chihara,1968,5,29,Japan,Chiba,,Shirahama,,M. Chihara
Shirahama,Japan,Chiba,,34.901323,139.900717,yes,High(84),,"34.916667,139.933333,SHIRAHAMA|Unavailable|3036|High(84)",3048,,28738,,Heterosiphonia,japonica,M. Chihara,1968,5,29,Japan,Chiba,,Shirahama,,M. Chihara
Shirahama,Japan,Chiba,,34.901323,139.900717,yes,High(84),,"34.916667,139.933333,SHIRAHAMA|Unavailable|3036|High(84)",3049,,28821,,Heterosiphonia,japonica,M. Chihara,1969,4,6,Japan,Chiba,,Shirahama,,M. Chihara
Shirahama,Japan,Chiba,,34.901323,139.900717,yes,High(84),,"34.916667,139.933333,SHIRAHAMA|Unavailable|3036|High(84)",3050,,28820,,Heterosiphonia,japonica,M. Chihara,1969,4,6,Japan,Chiba,,Shirahama,,M. Chihara
Shirahama,Japan,Chiba,,34.901323,139.900717,yes,High(84),,"34.916667,139.933333,SHIRAHAMA|Unavailable|3036|High(84)",3051,,28819,,Heterosiphonia,japonica,M. Chihara,1969,4,6,Japan,Chiba,,Shirahama,,M. Chihara
Shirahama,Japan,Chiba,,34.901323,139.900717,yes,High(84),,"34.916667,139.933333,SHIRAHAMA|Unavailable|3036|High(84)",3052,,28818,,Heterosiphonia,japonica,M. Chihara,1969,4,6,Japan,Chiba,,Shirahama,,M. Chihara
Shirahama,Japan,Chiba,,34.901323,139.900717,yes,High(84),,"34.916667,139.933333,SHIRAHAMA|Unavailable|3036|High(84)",3053,,28817,,Heterosiphonia,japonica,M. Chihara,1969,4,6,Japan,Chiba,,Shirahama,,M. Chihara
Shirahama,Japan,Chiba,,34.901323,139.900717,yes,High(84),,"34.916667,139.933333,SHIRAHAMA|Unavailable|3036|High(84)",3054,,28786,,Heterosiphonia,japonica,M. Yoshizaki,1970,3,9,Japan,Chiba,,Shirahama,,M. Chihara
Shirahama,Japan,Chiba,,34.901323,139.900717,yes,High(84),,"34.916667,139.933333,SHIRAHAMA|Unavailable|3036|High(84)",3055,,28785,,Heterosiphonia,japonica,M. Yoshizaki,1970,3,9,Japan,Chiba,,Shirahama,,M. Chihara
Shirahama,Japan,Chiba,,34.901323,139.900717,yes,High(84),,"34.916667,139.933333,SHIRAHAMA|Unavailable|3036|High(84)",3056,,28781,,Heterosiphonia,japonica,M. Yoshizaki,1970,3,9,Japan,Chiba,,Shirahama,,M. Chihara
Shirahama,Japan,Chiba,,34.901323,139.900717,yes,High(84),,"34.916667,139.933333,SHIRAHAMA|Unavailable|3036|High(84)",3057,,28780,,Heterosiphonia,japonica,M. Yoshizaki,1970,3,9,Japan,Chiba,,Shirahama,,M. Chihara
Shirahama,Japan,Chiba,,34.901323,139.900717,yes,High(84),,"34.916667,139.933333,SHIRAHAMA|Unavailable|3036|High(84)",3058,,28779,,Heterosiphonia,japonica,M. Yoshizaki,1970,3,9,Japan,Chiba,,Shirahama,,M. Chihara
Shirahama,Japan,Chiba,,34.901323,139.900717,yes,High(84),,"34.916667,139.933333,SHIRAHAMA|Unavailable|3036|High(84)",3059,,28778,,Heterosiphonia,japonica,M. Yoshizaki,1970,3,9,Japan,Chiba,,Shirahama,,M. Chihara
Shirahama,Japan,Chiba,,34.901323,139.900717,yes,High(84),,"34.916667,139.933333,SHIRAHAMA|Unavailable|3036|High(84)",3060,,28766,,Heterosiphonia,japonica,M. Yoshizaki,1970,3,9,Japan,Chiba,,Shirahama,,M. Chihara
Shirahama,Japan,Chiba,,34.901323,139.900717,yes,High(84),,"34.916667,139.933333,SHIRAHAMA|Unavailable|3036|High(84)",3061,,28765,,Heterosiphonia,japonica,M. Yoshizaki,1970,3,9,Japan,Chiba,,Shirahama,,M. Chihara
Shirahama,Japan,Chiba,,34.901323,139.900717,yes,High(84),,"34.916667,139.933333,SHIRAHAMA|Unavailable|3036|High(84)",3062,,28764,,Heterosiphonia,japonica,M. Yoshizaki,1970,3,9,Japan,Chiba,,Shirahama,,M. Chihara
Shirahama,Japan,Chiba,,34.901323,139.900717,yes,High(84),,"34.916667,139.933333,SHIRAHAMA|Unavailable|3036|High(84)",3063,,28791,,Heterosiphonia,japonica,M. Yoshizaki,1970,3,25,Japan,Chiba,,Shirahama,,M. Chihara
Shirahama,Japan,Chiba,,34.901323,139.900717,yes,High(84),,"34.916667,139.933333,SHIRAHAMA|Unavailable|3036|High(84)",3064,,28784,,Heterosiphonia,japonica,M. Yoshizaki,1970,3,25,Japan,Chiba,,Shirahama,,M. Chihara
Shirahama,Japan,Chiba,,34.901323,139.900717,yes,High(84),,"34.916667,139.933333,SHIRAHAMA|Unavailable|3036|High(84)",3065,,28783,,Heterosiphonia,japonica,M. Yoshizaki,1970,3,25,Japan,Chiba,,Shirahama,,M. Chihara
Shirahama,Japan,Chiba,,34.901323,139.900717,yes,High(84),,"34.916667,139.933333,SHIRAHAMA|Unavailable|3036|High(84)",3066,,28782,,Heterosiphonia,japonica,M. Yoshizaki,1970,3,25,Japan,Chiba,,Shirahama,,M. Chihara
,,,,,,,,,,,,,,,,,,,,,,,,,
Takahagi,Japan,Ibaraki,,36.719419,140.73246,yes,High(83),Unavailable,"36.769183,140.620936,TAKAHAGI|Unavailable|301|High(83),36.716667,140.716667,TAKAHAGI|Unavailable|3036|High(83)",3037,,154597,,Heterosiphonia,japonica,M. Nakaniwa,2000,6,4,Japan,Ibaraki,,Takahagi,,M. Nakaniwa
Takahagi,Japan,Ibaraki,,36.719419,140.73246,yes,High(83),Unavailable,"36.769183,140.620936,TAKAHAGI|Unavailable|301|High(83),36.716667,140.716667,TAKAHAGI|Unavailable|3036|High(83)",3038,,163803,,Heterosiphonia,japonica,M. Nakaniwa,2000,6,4,Japan,Ibaraki,,Takahagi,,M. Nakaniwa
Takahagi,Japan,Ibaraki,,36.719419,140.73246,yes,High(83),Unavailable,"36.769183,140.620936,TAKAHAGI|Unavailable|301|High(83),36.716667,140.716667,TAKAHAGI|Unavailable|3036|High(83)",3039,,154621,,Heterosiphonia,japonica,M. Nakaniwa,2001,5,10,Japan,Ibaraki,,Takahagi,,M. Nakaniwa
Takahagi,Japan,Ibaraki,,36.719419,140.73246,yes,High(83),Unavailable,"36.769183,140.620936,TAKAHAGI|Unavailable|301|High(83),36.716667,140.716667,TAKAHAGI|Unavailable|3036|High(83)",3040,,173393,,Heterosiphonia,japonica,M. Nakaniwa,2001,5,10,Japan,Ibaraki,,Takahagi,,M. Nakaniwa
Takahagi,Japan,Ibaraki,,36.719419,140.73246,yes,High(83),Unavailable,"36.769183,140.620936,TAKAHAGI|Unavailable|301|High(83),36.716667,140.716667,TAKAHAGI|Unavailable|3036|High(83)",3041,,181873,,Heterosiphonia,japonica,M. Nakaniwa,2002,6,24,Japan,Ibaraki,,Takahagi,,M. Nakaniwa
,,,,,,,,,,,,,,,,,,,,,,,,,
Takamatsu,Japan,Kagawa,,34.359969,134.040591,yes,High(84),,"34.268518,134.054496,TAKAMATSU|Unavailable|301|High(84)",4308,,162589,,Heterosiphonia,japonica,S. Mitani,1982,12,7,Japan,Kagawa,,Takamatsu,,T. Kitayama
Takamatsu,Japan,Kagawa,,34.359969,134.040591,yes,High(84),,"34.268518,134.054496,TAKAMATSU|Unavailable|301|High(84)",4309,,162615,,Heterosiphonia,japonica,S. Mitani,1991,3,7,Japan,Kagawa,,Takamatsu,,T. Kitayama
Takamatsu,Japan,Kagawa,,34.359969,134.040591,yes,High(84),,"34.268518,134.054496,TAKAMATSU|Unavailable|301|High(84)",4310,,162616,,Heterosiphonia,japonica,S. Mitani,1991,3,7,Japan,Kagawa,,Takamatsu,,T. Kitayama
Takamatsu,Japan,Kagawa,,34.359969,134.040591,yes,High(84),,"34.268518,134.054496,TAKAMATSU|Unavailable|301|High(84)",4311,,162617,,Heterosiphonia,japonica,S. Mitani,1991,3,7,Japan,Kagawa,,Takamatsu,,T. Kitayama
Takamatsu,Japan,Kagawa,,34.359969,134.040591,yes,High(84),,"34.268518,134.054496,TAKAMATSU|Unavailable|301|High(84)",4312,,162635,,Heterosiphonia,japonica,S. Mitani,1991,3,13,Japan,Kagawa,,Takamatsu,,T. Kitayama
Takamatsu,Japan,Kagawa,,34.359969,134.040591,yes,High(84),,"34.268518,134.054496,TAKAMATSU|Unavailable|301|High(84)",4313,,162657,,Heterosiphonia,japonica,S. Mitani,1991,3,17,Japan,Kagawa,,Takamatsu,,T. Kitayama
Takamatsu,Japan,Kagawa,,34.359969,134.040591,yes,High(84),,"34.268518,134.054496,TAKAMATSU|Unavailable|301|High(84)",4314,,162661,,Heterosiphonia,japonica,S. Mitani,1991,3,17,Japan,Kagawa,,Takamatsu,,T. Kitayama
Takamatsu,Japan,Kagawa,,34.359969,134.040591,yes,High(84),,"34.268518,134.054496,TAKAMATSU|Unavailable|301|High(84)",4315,,162733,,Heterosiphonia,japonica,S. Mitani,1991,3,25,Japan,Kagawa,,Takamatsu,,T. Kitayama
Takamatsu,Japan,Kagawa,,34.359969,134.040591,yes,High(84),,"34.268518,134.054496,TAKAMATSU|Unavailable|301|High(84)",4316,,162734,,Heterosiphonia,japonica,S. Mitani,1991,3,25,Japan,Kagawa,,Takamatsu,,T. Kitayama
Takamatsu,Japan,Kagawa,,34.359969,134.040591,yes,High(84),,"34.268518,134.054496,TAKAMATSU|Unavailable|301|High(84)",4317,,162764,,Heterosiphonia,japonica,S. Mitani,1991,4,28,Japan,Kagawa,,Takamatsu,,T. Kitayama
,,,,,,,,,,,,,,,,,,,,,,,,,
Tateyama,Japan,Chiba,,34.99374,139.846239,yes,High(83),,"34.983333,139.866667,TATEYAMA|Unavailable|3036|High(83),34.971561,139.86163,TATEYAMA|Unavailable|301|High(83)",3984,,28749,,Heterosiphonia,japonica,M. Chihara,1969,4,7,Japan,Chiba,,Tateyama,,M. Chihara
,,,,,,,,,,,,,,,,,,,,,,,,,
Toba,Japan,Mie,,34.498613,136.841417,yes,High(79),,"34.483333,136.85,TOBA|Unavailable|3036|High(79)",3037,Shinju-jima,154261,,Heterosiphonia,japonica,M. Tsumura,1984,3,18,Japan,Mie,Shinju-jima,Toba,,M. Tsumura
,,,,,,,,,,,,,,,,,,,,,,,,,
Tsuchiya,Japan,Aomori,,40.90895,140.864626,yes,High(83),,"40.906874,140.871407,TSUCHIYA|Unavailable|3036|High(83)",3037,,168729,,Heterosiphonia,japonica,,1967,8,3,Japan,Aomori,,Tsuchiya,,M. Yoshizaki
Tsuchiya,Japan,Aomori,,40.90895,140.864626,yes,High(83),,"40.906874,140.871407,TSUCHIYA|Unavailable|3036|High(83)",3038,,168730,,Heterosiphonia,japonica,,1967,8,3,Japan,Aomori,,Tsuchiya,,M. Yoshizaki
Tsuchiya,Japan,Aomori,,40.90895,140.864626,yes,High(83),,"40.906874,140.871407,TSUCHIYA|Unavailable|3036|High(83)",3039,,28721,,Heterosiphonia,japonica,M. Chihara,1967,8,6,Japan,Aomori,,Tsuchiya,,M. Chihara
Tsuchiya,Japan,Aomori,,40.90895,140.864626,yes,High(83),,"40.906874,140.871407,TSUCHIYA|Unavailable|3036|High(83)",3040,,28722,,Heterosiphonia,japonica,M. Chihara,1967,8,6,Japan,Aomori,,Tsuchiya,,M. Chihara
Tsuchiya,Japan,Aomori,,40.90895,140.864626,yes,High(83),,"40.906874,140.871407,TSUCHIYA|Unavailable|3036|High(83)",3041,,168737,,Heterosiphonia,japonica,M. Yoshizaki,1967,8,6,Japan,Aomori,,Tsuchiya,,M. Yoshizaki
Tsuchiya,Japan,Aomori,,40.90895,140.864626,yes,High(83),,"40.906874,140.871407,TSUCHIYA|Unavailable|3036|High(83)",3042,,168738,,Heterosiphonia,japonica,M. Yoshizaki,1967,8,6,Japan,Aomori,,Tsuchiya,,M. Yoshizaki
Tsuchiya,Japan,Aomori,,40.90895,140.864626,yes,High(83),,"40.906874,140.871407,TSUCHIYA|Unavailable|3036|High(83)",3043,,168739,,Heterosiphonia,japonica,M. Yoshizaki,1967,8,6,Japan,Aomori,,Tsuchiya,,M. Yoshizaki
Tsuchiya,Japan,Aomori,,40.90895,140.864626,yes,High(83),,"40.906874,140.871407,TSUCHIYA|Unavailable|3036|High(83)",3044,,168740,,Heterosiphonia,japonica,M. Yoshizaki,1967,8,6,Japan,Aomori,,Tsuchiya,,M. Yoshizaki
Tsuchiya,Japan,Aomori,,40.90895,140.864626,yes,High(83),,"40.906874,140.871407,TSUCHIYA|Unavailable|3036|High(83)",3045,,168744,,Heterosiphonia,japonica,M. Yoshizaki,1967,8,6,Japan,Aomori,,Tsuchiya,,M. Yoshizaki
,,,,,,,,,,,,,,,,,,,,,,,,,
Uchinomi,Japan,Kagawa,,34.459612,134.274652,yes,,,,3403,,162754,,Heterosiphonia,japonica,S. Mitani,1991,3,31,Japan,Kagawa,,Uchinomi,,T. Kitayama
,,,,,,,,,,,,,,,,,,,,,,,,,
Yamada,Japan,Iwate,,39.466932,141.990855,yes,High(81),Unavailable,"40.215248,141.233564,YAMADA|Unavailable|3036|High(81),38.962126,141.711493,YAMADA|Unavailable|3036|High(81),40.298722,141.457228,YAMADA|Unavailable|3036|High(81),39.466667,141.95,YAMADA|Unavailable|3036|High(81)",8008,,176285,,Heterosiphonia,japonica,M. Yoshizaki,1995,**,**,Japan,Iwate,,Yamada,,M. Yoshizaki
Yamada,Japan,Iwate,,39.466932,141.990855,yes,High(81),Unavailable,"40.215248,141.233564,YAMADA|Unavailable|3036|High(81),38.962126,141.711493,YAMADA|Unavailable|3036|High(81),40.298722,141.457228,YAMADA|Unavailable|3036|High(81),39.466667,141.95,YAMADA|Unavailable|3036|High(81)",8009,,182809,,Heterosiphonia,japonica,M. Suzuki,2001,6,22,Japan,Iwate,,Yamada,,M. Suzuki
Yamada,Japan,Iwate,,39.466932,141.990855,yes,High(81),Unavailable,"40.215248,141.233564,YAMADA|Unavailable|3036|High(81),38.962126,141.711493,YAMADA|Unavailable|3036|High(81),40.298722,141.457228,YAMADA|Unavailable|3036|High(81),39.466667,141.95,YAMADA|Unavailable|3036|High(81)",8010,,182810,,Heterosiphonia,japonica,M. Suzuki,2001,6,22,Japan,Iwate,,Yamada,,M. Suzuki
Yamada,Japan,Iwate,,39.466932,141.990855,yes,High(81),Unavailable,"40.215248,141.233564,YAMADA|Unavailable|3036|High(81),38.962126,141.711493,YAMADA|Unavailable|3036|High(81),40.298722,141.457228,YAMADA|Unavailable|3036|High(81),39.466667,141.95,YAMADA|Unavailable|3036|High(81)",8011,,182811,,Heterosiphonia,japonica,M. Suzuki,2001,6,22,Japan,Iwate,,Yamada,,M. Suzuki
Yamada,Japan,Iwate,,39.466932,141.990855,yes,High(81),Unavailable,"40.215248,141.233564,YAMADA|Unavailable|3036|High(81),38.962126,141.711493,YAMADA|Unavailable|3036|High(81),40.298722,141.457228,YAMADA|Unavailable|3036|High(81),39.466667,141.95,YAMADA|Unavailable|3036|High(81)",8012,,182812,,Heterosiphonia,japonica,M. Suzuki,2001,6,22,Japan,Iwate,,Yamada,,M. Suzuki
Yamada,Japan,Iwate,,39.466932,141.990855,yes,High(81),Unavailable,"40.215248,141.233564,YAMADA|Unavailable|3036|High(81),38.962126,141.711493,YAMADA|Unavailable|3036|High(81),40.298722,141.457228,YAMADA|Unavailable|3036|High(81),39.466667,141.95,YAMADA|Unavailable|3036|High(81)",8013,,182813,,Heterosiphonia,japonica,M. Suzuki,2001,6,22,Japan,Iwate,,Yamada,,M. Suzuki
Yamada,Japan,Iwate,,39.466932,141.990855,yes,High(81),Unavailable,"40.215248,141.233564,YAMADA|Unavailable|3036|High(81),38.962126,141.711493,YAMADA|Unavailable|3036|High(81),40.298722,141.457228,YAMADA|Unavailable|3036|High(81),39.466667,141.95,YAMADA|Unavailable|3036|High(81)",8014,,182814,,Heterosiphonia,japonica,M. Suzuki,2001,6,22,Japan,Iwate,,Yamada,,M. Suzuki
Yamada,Japan,Iwate,,39.466932,141.990855,yes,High(81),Unavailable,"40.215248,141.233564,YAMADA|Unavailable|3036|High(81),38.962126,141.711493,YAMADA|Unavailable|3036|High(81),40.298722,141.457228,YAMADA|Unavailable|3036|High(81),39.466667,141.95,YAMADA|Unavailable|3036|High(81)",8015,,182815,,Heterosiphonia,japonica,M. Suzuki,2001,6,22,Japan,Iwate,,Yamada,,M. Suzuki
Yamada,Japan,Iwate,,39.466932,141.990855,yes,High(81),Unavailable,"40.215248,141.233564,YAMADA|Unavailable|3036|High(81),38.962126,141.711493,YAMADA|Unavailable|3036|High(81),40.298722,141.457228,YAMADA|Unavailable|3036|High(81),39.466667,141.95,YAMADA|Unavailable|3036|High(81)",8016,,179810,,Heterosiphonia,japonica,M. Suzuki,2001,**,**,Japan,Iwate,,Yamada,,M. Suzuki
Yamada,Japan,Iwate,,39.466932,141.990855,yes,High(81),Unavailable,"40.215248,141.233564,YAMADA|Unavailable|3036|High(81),38.962126,141.711493,YAMADA|Unavailable|3036|High(81),40.298722,141.457228,YAMADA|Unavailable|3036|High(81),39.466667,141.95,YAMADA|Unavailable|3036|High(81)",8017,,179811,,Heterosiphonia,japonica,M. Suzuki,2001,**,**,Japan,Iwate,,Yamada,,M. Suzuki
Yamada,Japan,Iwate,,39.466932,141.990855,yes,High(81),Unavailable,"40.215248,141.233564,YAMADA|Unavailable|3036|High(81),38.962126,141.711493,YAMADA|Unavailable|3036|High(81),40.298722,141.457228,YAMADA|Unavailable|3036|High(81),39.466667,141.95,YAMADA|Unavailable|3036|High(81)",8018,,179812,,Heterosiphonia,japonica,M. Suzuki,2001,**,**,Japan,Iwate,,Yamada,,M. Suzuki
Yamada,Japan,Iwate,,39.466932,141.990855,yes,High(81),Unavailable,"40.215248,141.233564,YAMADA|Unavailable|3036|High(81),38.962126,141.711493,YAMADA|Unavailable|3036|High(81),40.298722,141.457228,YAMADA|Unavailable|3036|High(81),39.466667,141.95,YAMADA|Unavailable|3036|High(81)",8019,,179813,,Heterosiphonia,japonica,M. Suzuki,2001,**,**,Japan,Iwate,,Yamada,,M. Suzuki
Yamada,Japan,Iwate,,39.466932,141.990855,yes,High(81),Unavailable,"40.215248,141.233564,YAMADA|Unavailable|3036|High(81),38.962126,141.711493,YAMADA|Unavailable|3036|High(81),40.298722,141.457228,YAMADA|Unavailable|3036|High(81),39.466667,141.95,YAMADA|Unavailable|3036|High(81)",8020,,182807,,Heterosiphonia,japonica,M. Suzuki,2002,6,22,Japan,Iwate,,Yamada,,M. Suzuki
Yamada,Japan,Iwate,,39.466932,141.990855,yes,High(81),Unavailable,"40.215248,141.233564,YAMADA|Unavailable|3036|High(81),38.962126,141.711493,YAMADA|Unavailable|3036|High(81),40.298722,141.457228,YAMADA|Unavailable|3036|High(81),39.466667,141.95,YAMADA|Unavailable|3036|High(81)",8021,,182808,,Heterosiphonia,japonica,M. Suzuki,2002,6,25,Japan,Iwate,,Yamada,,M. Suzuki
Yamada,Japan,Iwate,,39.466932,141.990855,yes,High(81),Unavailable,"40.215248,141.233564,YAMADA|Unavailable|3036|High(81),38.962126,141.711493,YAMADA|Unavailable|3036|High(81),40.298722,141.457228,YAMADA|Unavailable|3036|High(81),39.466667,141.95,YAMADA|Unavailable|3036|High(81)",8022,,166826,,Heterosiphonia,japonica,M. Suzuki,2007,4,30,Japan,Iwate,,Yamada,,M. Suzuki
Yamada,Japan,Iwate,,39.466932,141.990855,yes,High(81),Unavailable,"40.215248,141.233564,YAMADA|Unavailable|3036|High(81),38.962126,141.711493,YAMADA|Unavailable|3036|High(81),40.298722,141.457228,YAMADA|Unavailable|3036|High(81),39.466667,141.95,YAMADA|Unavailable|3036|High(81)",8023,,182580,,Heterosiphonia,japonica,M. Suzuki,2007,4,30,Japan,Iwate,,Yamada,,M. Suzuki
,,,,,,,,,,,,,,,,,,,,,,,,,
Yokohama,Japan,Kanagawa,,35.420096,139.692977,yes,High(83),Unavailable,"35.462245,139.576452,YOKOHAMA|Unavailable|301|High(83),35.465408,139.622253,YOKOHAMA|Unavailable|301|High(83)",7304,,158119,,Heterosiphonia,japonica,M. Higashi,1928,4,21,Japan,Kanagawa,,Yokohama,,
,,,,,,,,,,,,,,,,,,,,,,,,,
Yokosuka,Japan,Kanagawa,,35.284452,139.684045,yes,High(83),,"35.283611,139.667222,YOKOSUKA|Unavailable|3036|High(83),35.249854,139.660326,YOKOSUKA|Unavailable|301|High(83),35.28424,139.654813,YOKOSUKA|Unavailable|301|High(83)",3037,,172901,,Heterosiphonia,japonica,S. Kato,1938,3,2,Japan,Kanagawa,,Yokosuka,,
Yokosuka,Japan,Kanagawa,,35.284452,139.684045,yes,High(83),,"35.283611,139.667222,YOKOSUKA|Unavailable|3036|High(83),35.249854,139.660326,YOKOSUKA|Unavailable|301|High(83),35.28424,139.654813,YOKOSUKA|Unavailable|301|High(83)",3038,,172898,,Heterosiphonia,japonica,S. Kato,1938,3,,Japan,Kanagawa,,Yokosuka,,
,,,,,,,,,,,,,,,,,,,,,,,,,
Zushi,Japan,Kanagawa,,35.287183,139.559463,yes,High(80),,"35.291667,139.585556,ZUSHI|Unavailable|3036|High(80),35.299002,139.591255,ZUSHI|Unavailable|301|High(80)",3037,,182583,,Heterosiphonia,japonica,M. Suzuki,2001,2,22,Japan,Kanagawa,,Zushi,,M. Suzuki
Zushi,Japan,Kanagawa,,35.287183,139.559463,yes,High(80),,"35.291667,139.585556,ZUSHI|Unavailable|3036|High(80),35.299002,139.591255,ZUSHI|Unavailable|301|High(80)",3038,,182584,,Heterosiphonia,japonica,M. Suzuki,2001,2,22,Japan,Kanagawa,,Zushi,,M. Suzuki
Zushi,Japan,Kanagawa,,35.287183,139.559463,yes,High(80),,"35.291667,139.585556,ZUSHI|Unavailable|3036|High(80),35.299002,139.591255,ZUSHI|Unavailable|301|High(80)",3039,,182585,,Heterosiphonia,japonica,M. Suzuki,2001,2,22,Japan,Kanagawa,,Zushi,,M. Suzuki
Zushi,Japan,Kanagawa,,35.287183,139.559463,yes,High(80),,"35.291667,139.585556,ZUSHI|Unavailable|3036|High(80),35.299002,139.591255,ZUSHI|Unavailable|301|High(80)",3040,,182586,,Heterosiphonia,japonica,M. Suzuki,2001,2,22,Japan,Kanagawa,,Zushi,,M. Suzuki
Zushi,Japan,Kanagawa,,35.287183,139.559463,yes,High(80),,"35.291667,139.585556,ZUSHI|Unavailable|3036|High(80),35.299002,139.591255,ZUSHI|Unavailable|301|High(80)",3041,,182587,,Heterosiphonia,japonica,M. Suzuki,2001,2,22,Japan,Kanagawa,,Zushi,,M. Suzuki
,Japan,Chiba,,35.172308,140.481472,yes,,,,86062,,166546,,,,,0,,,,,,,,
,Japan,Ehime,,33.767636,132.628994,yes,,,,82663,,155604,,,,,0,,,,,,,,
,Japan,Kagawa,,34.208713,134.005143,yes,,,,52087,,163055,,,,,0,,,,,,,,
,Japan,Kanagawa,,35.311869,139.257957,yes,,,,57575,,172900,,,,,0,,,,,,,,
,Japan,Mie,,34.392161,136.681429,yes,,,,64688,,28776,,,,,0,,,,,,,,
,Japan,Niigata,,38.024276,138.376313,yes,,,,29441,Sado,28746,,,,,0,,,,,,,,
,Japan,Shizuoka,,35.020959,138.347454,yes,,,,109295,,166550,,,,,0,,,,,,,,
,Japan,Tottori,,35.583577,134.219342,yes,,,,55581,,28758,,,,,0,,,,,,,,
,Japan,Kanagawa,,,,,,,,,,172900,,Heterosiphonia,japonica,S. Kato,1938,3,2,Japan,Kanagawa,,,,
,Japan,Kanagawa,,,,,,,,,,172904,,Heterosiphonia,japonica,,1941,4,14,Japan,Kanagawa,,,,
,Japan,Chiba,,,,,,,,,,166546,,Heterosiphonia,japonica,T. Katagiri,1965,4,7,Japan,Chiba,,,,
,Japan,Niigata,,,,,,,,,Sado,28746,,Heterosiphonia,japonica,N. Kitami,1967,3,25,Japan,Niigata,Sado,,,M. Chihara
,Japan,Tottori,,,,,,,,,,28758,,Heterosiphonia,japonica,T. Habe,1969,7,13,Japan,Tottori,,,,M. Chihara
,Japan,Tottori,,,,,,,,,,28757,,Heterosiphonia,japonica,T. Habe,1969,7,13,Japan,Tottori,,,,M. Chihara
,Japan,Tottori,,,,,,,,,,28756,,Heterosiphonia,japonica,T. Habe,1969,7,13,Japan,Tottori,,,,M. Chihara
,Japan,Mie,,,,,,,,,,28776,,Heterosiphonia,japonica,S. Hiraide,1971,1,11,Japan,Mie,,,,M. Chihara
,Japan,Mie,,,,,,,,,,28775,,Heterosiphonia,japonica,S. Hiraide,1971,1,11,Japan,Mie,,,,M. Chihara
,Japan,Mie,,,,,,,,,,28754,,Heterosiphonia,japonica,S. Hiraide,1971,1,11,Japan,Mie,,,,M. Chihara
,Japan,Mie,,,,,,,,,,28753,,Heterosiphonia,japonica,S. Hiraide,1971,1,11,Japan,Mie,,,,M. Chihara
,Japan,Shizuoka,,,,,,,,,,166550,,Heterosiphonia,japonica,M. Chihara,1980,4,17,Japan,Shizuoka,,,,
,Japan,Shizuoka,,,,,,,,,,166551,,Heterosiphonia,japonica,M. Chihara,1980,4,17,Japan,Shizuoka,,,,
,Japan,Shizuoka,,,,,,,,,,166552,,Heterosiphonia,japonica,M. Chihara,1980,4,17,Japan,Shizuoka,,,,
,Japan,Shizuoka,,,,,,,,,,166553,,Heterosiphonia,japonica,M. Chihara,1980,4,17,Japan,Shizuoka,,,,
,Japan,Shizuoka,,,,,,,,,,166554,,Heterosiphonia,japonica,M. Chihara,1980,4,17,Japan,Shizuoka,,,,
,Japan,Ehime,,,,,,,,,,155604,,Heterosiphonia,japonica,T. Kitayama,1988,4,16,Japan,Ehime,,,,T. Kitayama
,Japan,Yamaguchi,,,,,,,,,Hando-jima,48617,,Heterosiphonia,japonica,S. Enomoto,1994,6,3,Japan,Yamaguchi,Hando-jima,,,T. Yoshida
,Japan,Kagawa,,,,,,,,,,163055,,Heterosiphonia,japonica,S. Mitani,1995,4,10,Japan,Kagawa,,,,T. Kitayama
